pincode,latitude,longitude,address
144029,31.0860234,75.9405178,"Punjab 144029, India"
606208,11.8194453,78.9175088,"Tamil Nadu 606208, India"
360450,21.9069634,70.2765481,"Gujarat 360450, India"
360452,21.9972106,70.3598758,"Gujarat 360452, India"
360460,21.7850272,70.1217652,"Gujarat 360460, India"
524301,14.5431157,79.3465557,"Andhra Pradesh 524301, India"
524307,14.6763077,79.4928857,"Andhra Pradesh 524307, India"
524308,14.6423395,79.7624177,"Andhra Pradesh 524308, India"
524309,14.5022636,79.7175517,"Andhra Pradesh 524309, India"
524310,15.0279942,79.1322744,"Andhra Pradesh 524310, India"
524311,14.3925672,80.109357,"Andhra Pradesh 524311, India"
524312,14.71407,79.3127543,"Andhra Pradesh 524312, India"
229401,25.9956792,81.36194019999999,"Uttar Pradesh 229401, India"
229402,26.0717959,81.26289609999999,"Uttar Pradesh 229402, India"
524315,14.6900695,80.0646682,"Andhra Pradesh 524315, India"
229404,25.8633354,81.30693149999999,"Uttar Pradesh 229404, India"
131101,29.1424931,77.0219019,"Haryana 131101, India"
131102,37.73536900000001,115.675422,"Taocheng, Hengshui, Hebei, China"
131103,28.8680369,77.0219019,"131103, India"
229408,25.8203374,81.3729372,"Uttar Pradesh 229408, India"
524321,14.271943,79.9752212,"Andhra Pradesh 524321, India"
229410,25.9753671,81.614468,"Uttar Pradesh 229410, India"
229411,1.304701,103.839483,Singapore 229411
229412,1.304752,103.839473,Singapore 229412
229413,1.304809,103.8394689,Singapore 229413
491558,20.9759479,80.5882803,"Chhattisgarh 491558, India"
491559,22.2882448,81.2518833,"Chhattisgarh 491559, India"
759132,20.7090475,84.9193082,"Odisha 759132, India"
360490,21.6996907,70.1693949,"Gujarat 360490, India"
142002,55.4293651,37.73244510000001,"Moscow Oblast, Russia, 142002"
492101,21.2044688,81.8005724,"Chhattisgarh 492101, India"
261302,27.3651402,80.8322428,"Uttar Pradesh 261302, India"
600123,13.0551033,80.0842224,"Tamil Nadu 600123, India"
415718,17.6593829,73.6300729,"Maharashtra 415718, India"
524341,14.4962993,79.582819,"Andhra Pradesh 524341, India"
524342,14.416335,79.59405439999999,"Andhra Pradesh 524342, India"
524343,14.4902487,79.4478858,"Andhra Pradesh 524343, India"
524344,14.2775704,80.109357,"Andhra Pradesh 524344, India"
262201,28.3356689,79.7848422,"Uttar Pradesh 262201, India"
262202,28.185411,79.9416549,"Uttar Pradesh 262202, India"
262203,28.4596488,79.8968798,"Uttar Pradesh 262203, India"
360510,21.9192549,69.7406072,"Gujarat 360510, India"
360515,21.9890897,69.93121169999999,"Gujarat 360515, India"
382305,23.1657593,72.8751786,"Gujarat 382305, India"
360520,22.0587695,70.1217652,"Gujarat 360520, India"
524366,14.5419933,79.96962769999999,"Andhra Pradesh 524366, India"
575028,12.9190028,74.903339,"Karnataka 575028, India"
360530,21.8841401,70.0026756,"Gujarat 360530, India"
360531,21.8463165,69.8835651,"Gujarat 360531, India"
360540,22.1003683,70.4550922,"Gujarat 360540, India"
638314,11.5887797,77.665066,"Tamil Nadu 638314, India"
360545,21.7359557,69.6869913,"Gujarat 360545, India"
360550,21.6846787,69.77634909999999,"Gujarat 360550, India"
181131,32.5140563,74.7688173,181131
600125,13.0129745,80.17355649999999,"Chennai, Tamil Nadu 600125, India"
360560,21.7886782,69.78826269999999,"Gujarat 360560, India"
524401,13.555735,80.1205256,"Andhra Pradesh 524401, India"
524402,14.0027587,79.8520818,"Andhra Pradesh 524402, India"
524403,13.8780852,80.1651854,"Andhra Pradesh 524403, India"
524404,13.9932282,79.6277523,"Andhra Pradesh 524404, India"
524405,14.2781981,79.8520818,"Andhra Pradesh 524405, India"
524406,14.1485455,79.77363059999999,"Andhra Pradesh 524406, India"
524407,14.2236324,79.714615,"Andhra Pradesh 524407, India"
524408,14.2028936,79.5353361,"Andhra Pradesh 524408, India"
327801,23.2174918,74.4525627,"327801, India"
360570,21.6640258,69.8835651,"Gujarat 360570, India"
524411,14.0708122,80.109357,"Andhra Pradesh 524411, India"
524412,14.1479359,80.03113640000001,"Andhra Pradesh 524412, India"
524413,14.0203002,79.99759159999999,"Andhra Pradesh 524413, India"
524414,14.3064717,79.4478858,"Andhra Pradesh 524414, India"
360575,21.638271,69.6125192,"Porbandar, Gujarat 360575, India"
360576,21.515372,69.78826269999999,"Gujarat 360576, India"
360577,21.6526848,69.63635099999999,"Gujarat 360577, India"
360578,21.65325,69.6631609,"Gujarat 360578, India"
360579,21.7127599,69.5499578,"Gujarat 360579, India"
360470,21.8068012,70.20511479999999,"Gujarat 360470, India"
123302,28.3985032,76.4447397,"Haryana 123302, India"
458888,24.0543517,75.6440842,"458888, India"
852105,26.3112514,86.72151749999999,"Bihar 852105, India"
852106,25.7860974,86.4794359,"Bihar 852106, India"
458775,24.5446971,75.667356,"Madhya Pradesh 458775, India"
852108,26.2534026,86.7718017,"Bihar 852108, India"
491661,20.9208063,80.8765205,"Chhattisgarh 491661, India"
524302,14.6199611,79.2676668,"Andhra Pradesh 524302, India"
524303,14.5962737,79.5041322,"Andhra Pradesh 524303, India"
524304,14.7174485,79.63898209999999,"Andhra Pradesh 524304, India"
524305,14.5220747,79.9080757,"Andhra Pradesh 524305, India"
524306,14.5642182,79.8184684,"Andhra Pradesh 524306, India"
458771,24.6713218,75.6557206,"Madhya Pradesh 458771, India"
473551,25.5668761,77.69941969999999,"Madhya Pradesh 473551, India"
524313,14.5316294,80.1316927,"Andhra Pradesh 524313, India"
458778,24.4800749,75.841775,"458778, India"
524316,14.5160046,80.02712819999999,"Andhra Pradesh 524316, India"
229405,26.1642262,81.2408689,"Uttar Pradesh 229405, India"
229406,25.935051,81.32893969999999,"Uttar Pradesh 229406, India"
606213,11.7323059,78.9853813,"Tamil Nadu 606213, India"
360480,21.9278547,70.1693949,"Gujarat 360480, India"
524322,14.6003192,79.59405439999999,"Andhra Pradesh 524322, India"
524323,14.2398243,80.03113640000001,"Andhra Pradesh 524323, India"
491557,21.0801632,80.7657804,"Chhattisgarh 491557, India"
535217,18.1985376,83.4856913,"Andhra Pradesh 535217, India"
524345,14.4122337,79.7624177,"Andhra Pradesh 524345, India"
524346,14.3657962,80.0199562,"Andhra Pradesh 524346, India"
224117,26.7461064,81.57061089999999,"Uttar Pradesh 224117, India"
425102,21.0855548,75.6557206,"Maharashtra 425102, India"
759145,20.8229128,85.1583064,"Odisha 759145, India"
524409,14.3183472,79.7175517,"Andhra Pradesh 524409, India"
524410,14.0633902,79.9304633,"Andhra Pradesh 524410, India"
524415,13.9781045,80.08701549999999,"Andhra Pradesh 524415, India"
458880,24.3588049,75.667356,"458880, India"
458883,24.2478815,75.4810786,"458883, India"
524421,13.9201776,79.7960523,"Andhra Pradesh 524421, India"
441912,21.4203601,79.7175517,"Maharashtra 441912, India"
181132,32.6139391,74.8624092,181132
852107,25.8291896,86.8119917,"Bihar 852107, India"
852109,26.230698,86.8119917,"Bihar 852109, India"
360590,21.8492674,69.5499578,"Gujarat 360590, India"
458895,24.0556613,75.17788530000001,"Madhya Pradesh 458895, India"
852112,26.0340801,87.0024407,"Bihar 852112, India"
491665,20.7023081,80.7657804,"491665, India"
491666,20.5901432,80.8765205,"Chhattisgarh 491666, India"
852115,25.7015191,86.9223432,"Bihar 852115, India"
491668,20.8615698,80.6548882,"Chhattisgarh 491668, India"
711413,22.5474382,87.962884,"West Bengal 711413, India"
639001,10.9538518,78.0594874,"Tamil Nadu 639001, India"
852121,25.9223851,86.7516942,"Bihar 852121, India"
852122,25.8923161,87.0024407,"Bihar 852122, India"
852123,25.9741202,86.438974,"Bihar 852123, India"
852124,25.9423234,86.59053709999999,"Bihar 852124, India"
852125,26.2453188,86.9423801,"Bihar 852125, India"
262302,28.6098513,79.59405439999999,"Uttar Pradesh 262302, India"
852127,25.7059936,86.59053709999999,"Bihar 852127, India"
852128,26.0529738,86.7818523,"Bihar 852128, India"
262305,28.6972814,79.9864071,"262305, India"
852130,26.0714997,86.5602614,"Bihar 852130, India"
639003,10.8916937,78.0309542,"Tamil Nadu 639003, India"
262308,28.903209,79.96403389999999,"262308, India"
262309,29.0868393,80.109357,"Uttarakhand 262309, India"
262310,29.06950789999999,80.03113640000001,"Uttarakhand 262310, India"
262311,28.9144206,79.80726109999999,"262311, India"
181133,32.6225354,74.9325683,181133
852137,25.9798547,86.681253,"Bihar 852137, India"
786602,27.3444081,95.27889259999999,"Assam 786602, India"
852139,26.1616367,86.8922723,"Bihar 852139, India"
221505,25.3775568,82.06250519999999,"Uttar Pradesh 221505, India"
524317,14.6141754,79.9080757,"Andhra Pradesh 524317, India"
590001,15.8596329,74.508242,"Belagavi, Karnataka 590001, India"
786610,27.2717126,95.34162549999999,"Assam 786610, India"
590003,15.844216,74.5316807,"Karnataka 590003, India"
786612,27.2431887,95.16406049999999,"Assam 786612, India"
590005,15.7897905,74.528751,"Karnataka 590005, India"
590006,15.8328845,74.49359129999999,"Karnataka 590006, India"
322249,26.4229917,77.1255055,"Rajasthan 322249, India"
590008,15.8189099,74.45842449999999,"Karnataka 590008, India"
590009,15.8517515,74.4979866,"Belagavi, Karnataka 590009, India"
590010,15.9022306,74.505312,"Karnataka 590010, India"
590011,15.8356973,74.512637,"Belagavi, Karnataka 590011, India"
786621,27.2264062,95.29979589999999,"Assam 786621, India"
590014,15.7506114,74.3822058,"590014, India"
590015,15.8942303,74.5521869,"Karnataka 590015, India"
590016,15.9380412,74.6049061,"Karnataka 590016, India"
524320,14.3600792,79.8856824,"Andhra Pradesh 524320, India"
590018,15.7824701,74.4672169,"Karnataka 590018, India"
590019,15.8763289,74.5023819,"Belagavi, Karnataka 590019, India"
590020,15.8204459,74.5580454,"Karnataka 590020, India"
322252,26.7853294,77.1600201,"Rajasthan 322252, India"
721101,22.4194665,87.3512913,"West Bengal 721101, India"
721102,22.4758234,87.1622344,"West Bengal 721102, India"
522658,16.2159011,79.7624177,"Andhra Pradesh 522658, India"
322254,26.8377455,76.9758274,"Rajasthan 322254, India"
603402,12.6400096,79.70633169999999,"Tamil Nadu 603402, India"
322255,26.4608271,76.90668289999999,"Rajasthan 322255, India"
224171,26.3230815,82.4915194,"Uttar Pradesh 224171, India"
721121,22.8589498,87.28172719999999,"West Bengal 721121, India"
721122,22.5395421,87.4108352,"West Bengal 721122, India"
721124,22.3510985,87.5494745,"West Bengal 721124, India"
131301,29.1001866,76.7105632,"Haryana 131301, India"
131302,29.2128929,76.583499,"Haryana 131302, India"
721127,22.860931,87.4009165,"West Bengal 721127, India"
131304,29.1271519,76.5257007,"Haryana 131304, India"
131305,29.1448311,76.8144298,"Haryana 131305, India"
131306,29.21102419999999,76.79135579999999,"Haryana 131306, India"
721131,22.3290103,87.6679765,"West Bengal 721131, India"
721132,22.627329,87.3165222,"West Bengal 721132, India"
142034,1.296768,103.798138,Singapore 142034
458990,24.0274623,75.36453689999999,"Madhya Pradesh 458990, India"
721135,22.1906468,87.20209899999999,"West Bengal 721135, India"
721136,22.4475781,87.6285099,"West Bengal 721136, India"
721137,22.3801321,87.92367469999999,"West Bengal 721137, India"
721139,22.4246049,87.68769689999999,"West Bengal 721139, India"
721140,22.2563757,87.58900919999999,"West Bengal 721140, India"
852213,25.5114195,86.8822445,"Bihar 852213, India"
852214,26.1169465,87.01244349999999,"Bihar 852214, India"
721143,22.2362022,87.0824045,"West Bengal 721143, India"
721144,22.1492874,87.5988876,"West Bengal 721144, India"
721145,22.2520451,87.31155299999999,"West Bengal 721145, India"
721146,22.5201924,87.70740889999999,"West Bengal 721146, India"
491771,20.8108841,81.0312989,"Chhattisgarh 491771, India"
721148,22.5515399,87.8205864,"West Bengal 721148, India"
721149,22.3260613,87.4703029,"West Bengal 721149, India"
721150,22.5293382,87.5198011,"West Bengal 721150, India"
721151,22.4085707,87.8205864,"West Bengal 721151, India"
721152,22.3533991,87.70740889999999,"West Bengal 721152, India"
262402,29.070701,79.4478858,"Uttarakhand 262402, India"
721155,22.2339721,87.68769689999999,"West Bengal 721155, India"
721156,22.4946471,87.58900919999999,"West Bengal 721156, India"
262405,28.9855833,79.6838874,"262405, India"
262406,28.4427245,79.67266320000002,"Uttar Pradesh 262406, India"
721159,21.9979679,87.0824045,"721159, India"
721160,22.3760968,87.6285099,"West Bengal 721160, India"
721161,22.1806988,87.7123355,"West Bengal 721161, India"
721166,22.2081299,87.5494745,"West Bengal 721166, India"
721167,22.454877,87.7221872,"West Bengal 721167, India"
721171,22.4076326,87.7517295,"West Bengal 721171, India"
721172,22.2133072,87.80952719999999,"West Bengal 721172, India"
382340,23.0901517,72.6515383,"Ahmedabad, Gujarat 382340, India"
415109,17.4105123,74.0887576,"Maharashtra 415109, India"
142044,31.0836964,74.9910112,"Punjab 142044, India"
721201,22.7669327,87.48020679999999,"West Bengal 721201, India"
603405,12.5940135,79.9864071,"Tamil Nadu 603405, India"
628105,8.899535,78.1450412,"Tamil Nadu 628105, India"
721211,22.5798959,87.7172616,"West Bengal 721211, India"
721212,22.6398728,87.74680710000001,"West Bengal 721212, India"
328001,26.7240659,77.9053182,"Rajasthan 328001, India"
721222,22.7343254,87.68769689999999,"West Bengal 721222, India"
191201,34.2382988,74.8039205,191201
131402,28.8899496,76.8951551,"131402, India"
131403,28.9299326,76.9527836,"Haryana 131403, India"
486114,1.338108,103.9720679,Singapore 486114
202125,27.905322,78.1792434,"Uttar Pradesh 202125, India"
131408,28.9620217,76.8144298,"Haryana 131408, India"
131409,29.0134263,76.7567368,"Haryana 131409, India"
603406,12.5519421,79.77363059999999,"Tamil Nadu 603406, India"
754003,20.5991498,86.0657047,"Odisha 754003, India"
754004,20.1214496,86.1141045,"Odisha 754004, India"
328021,26.5821465,77.6077865,"Rajasthan 328021, India"
754006,20.4342793,85.7564107,"Odisha 754006, India"
754007,20.3477547,85.62292959999999,"Odisha 754007, India"
754008,20.3446291,85.49941919999999,"Odisha 754008, India"
328025,1.322652,103.862944,Singapore 328025
328026,26.4478457,77.4013403,"Rajasthan 328026, India"
328027,26.8367585,77.7337628,"Rajasthan 328027, India"
754012,20.3624288,85.735897,"Odisha 754012, India"
328029,26.7822216,78.04236829999999,"Rajasthan 328029, India"
328030,26.7161639,77.8138553,"Rajasthan 328030, India"
328031,26.5488193,77.4931403,"Rajasthan 328031, India"
202128,27.8755986,78.2362225,"Uttar Pradesh 202128, India"
754018,20.2740105,86.0223611,"Odisha 754018, India"
721253,22.7643619,87.32149079999999,"West Bengal 721253, India"
754022,20.6061458,85.9815339,"Odisha 754022, India"
754023,20.608935,86.1039189,"Odisha 754023, India"
754024,20.6574408,86.1446493,"Odisha 754024, India"
491881,21.4629811,80.8543847,"Chhattisgarh 491881, India"
754026,20.4080605,86.30471039999999,"Odisha 754026, India"
754027,20.5056376,85.7564107,"Odisha 754027, India"
721260,22.6716564,87.48020679999999,"West Bengal 721260, India"
491885,21.4974087,81.0533854,"Chhattisgarh 491885, India"
754030,20.4756766,85.50972259999999,"Odisha 754030, India"
754031,20.4343011,85.2929384,"Odisha 754031, India"
491888,21.6568624,80.9428911,"Chhattisgarh 491888, India"
754035,20.4735344,85.4272402,"Odisha 754035, India"
688501,9.4933309,76.3926668,"Kerala 688501, India"
688502,9.4508222,76.41581289999999,"Kuttanad Taluk, Kerala 688502, India"
688503,9.4187242,76.4273844,"Kuttanad Taluk, Kerala 688503, India"
262520,29.5567022,80.2432839,"Uttarakhand 262520, India"
262521,29.54931939999999,80.2990246,"Uttarakhand 262521, India"
262522,29.6245744,80.0758425,"Uttarakhand 262522, India"
262523,29.27830819999999,80.0534923,"Uttarakhand 262523, India"
262524,29.3949334,80.0758425,"Uttarakhand 262524, India"
262525,29.4565495,80.1316927,"Uttarakhand 262525, India"
262526,29.5956144,80.38256679999999,"Uttarakhand 262526, India"
262527,29.4728319,80.0423151,"Uttarakhand 262527, India"
262528,29.3388637,79.9416549,"Uttarakhand 262528, India"
262529,29.4828431,80.1763467,"Uttarakhand 262529, India"
262530,29.5304376,80.1986649,"Uttarakhand 262530, India"
262531,29.795721,80.0646682,"Uttarakhand 262531, India"
262532,29.7608854,79.9080757,"Uttarakhand 262532, India"
262533,29.8661457,80.08701549999999,"Uttarakhand 262533, India"
262534,29.7252633,80.0423151,"Uttarakhand 262534, India"
688521,9.5462565,76.3579401,"Kerala 688521, India"
688522,9.5722642,76.3289941,"Kerala 688522, India"
688523,9.5991995,76.32320419999999,"Kerala 688523, India"
262540,29.6288673,80.2878794,"Uttarakhand 262540, India"
262541,29.6764095,80.3101684,"Uttarakhand 262541, India"
262542,29.7140542,80.1986649,"Uttarakhand 262542, India"
262543,29.7468758,80.33245140000001,"Uttarakhand 262543, India"
262544,29.8737988,80.3435908,"Uttarakhand 262544, India"
262545,30.404838,80.4103957,"Uttarakhand 262545, India"
262546,30.2476931,80.7657804,"Uttarakhand 262546, India"
688531,9.740610499999999,76.32320419999999,"Kerala 688531, India"
688532,9.7623877,76.32320419999999,"Kerala 688532, India"
688533,9.792222599999999,76.3203091,"Kerala 688533, India"
262550,29.7726763,80.29345219999999,"Uttarakhand 262550, India"
262551,29.7722162,80.2098219,"Uttarakhand 262551, India"
262552,29.8236847,80.1316927,"Uttarakhand 262552, India"
262553,30.0437394,80.1651854,"Uttarakhand 262553, India"
262554,30.4338473,80.1875065,"Uttarakhand 262554, India"
262555,29.97112349999999,80.2655846,"Uttarakhand 262555, India"
688540,9.7723347,76.3000419,"Kerala 688540, India"
688541,9.7420182,76.3579401,"Kerala 688541, India"
754082,20.6896658,85.9917437,"Odisha 754082, India"
431515,18.8167392,76.5719414,"Maharashtra 431515, India"
229801,26.5094346,81.52672820000001,"Uttar Pradesh 229801, India"
229802,1.30698,103.8385349,Singapore 229802
688555,9.623255499999999,76.3810922,"Kerala 688555, India"
431517,18.7350779,76.4100267,"Maharashtra 431517, India"
262576,29.8168617,80.4270885,"Uttarakhand 262576, India"
688561,9.362255,76.36951669999999,"Kerala 688561, India"
688562,9.3579606,76.39845369999999,"Kuttanad Taluk, Kerala 688562, India"
262580,29.4273661,79.8968798,"Uttarakhand 262580, India"
431518,18.6499068,76.2015572,"Maharashtra 431518, India"
754102,20.3229599,86.0835415,"Odisha 754102, India"
754103,20.2538291,86.1853474,"Odisha 754103, India"
754104,20.3083438,86.231094,"Odisha 754104, India"
754105,20.2273542,86.0631561,"Odisha 754105, India"
688570,9.8509766,76.3579401,"Kerala 688570, India"
754107,20.153277,86.21076719999999,"Odisha 754107, India"
754108,20.1608397,86.28695069999999,"Odisha 754108, India"
754109,20.1761873,86.1700894,"Odisha 754109, India"
754110,20.1153599,86.3883506,"Odisha 754110, India"
754111,20.3696241,86.0427626,"Odisha 754111, India"
754112,20.4148662,85.9406745,"Odisha 754112, India"
754113,20.0877575,86.2056843,"Odisha 754113, India"
754114,20.2818948,86.1090119,"Odisha 754114, India"
688582,9.642216399999999,76.31265429999999,"Kerala 688582, India"
754119,20.0782187,86.317392,"Odisha 754119, India"
754120,20.2818145,86.6862879,"Odisha 754120, India"
431522,18.5906836,76.6643728,"Maharashtra 431522, India"
518302,15.6288734,77.22901929999999,"Andhra Pradesh 518302, India"
754130,20.3947853,86.1039189,"Odisha 754130, India"
754131,20.44237,86.1039189,"Odisha 754131, India"
754132,20.3489922,86.1853474,"Odisha 754132, India"
754133,20.332571,86.2514126,"Odisha 754133, India"
754134,20.3736649,86.2260131,"Odisha 754134, India"
754135,20.3449002,86.2717231,"Odisha 754135, India"
754136,20.2802189,86.3072469,"Odisha 754136, India"
491993,21.6757892,81.295925,"Chhattisgarh 491993, India"
754138,20.23348,86.34781509999999,"Odisha 754138, India"
491995,21.9004384,81.0754657,"Chhattisgarh 491995, India"
754140,20.3065241,86.4288534,"Odisha 754140, India"
754141,20.320248,86.51986509999999,"Odisha 754141, India"
754142,20.3105116,86.63087589999999,"Odisha 754142, India"
754143,20.3050426,86.6560709,"Paradeep, Odisha 754143, India"
492001,21.2329892,81.65829939999999,"Raipur, Chhattisgarh 492001, India"
492002,21.2452808,81.6377566,"Raipur, Chhattisgarh 492002, India"
492003,21.3017962,81.614468,"Chhattisgarh 492003, India"
492004,21.2592022,81.650083,"Raipur, Chhattisgarh 492004, India"
492005,21.2984852,81.7267341,"Chhattisgarh 492005, India"
492009,21.2634837,81.61720830000002,"Raipur, Chhattisgarh 492009, India"
492010,21.2466443,81.57609450000001,"Raipur, Chhattisgarh 492010, India"
492012,21.2351518,81.7021049,"Chhattisgarh 492012, India"
492013,21.2127961,81.6089873,"Chhattisgarh 492013, India"
492014,21.2791176,81.6938933,"Chhattisgarh 492014, India"
492015,21.1878237,81.7021049,"Chhattisgarh 492015, India"
754160,20.3141499,86.3655534,"Odisha 754160, India"
754162,20.3595491,86.403543,"Odisha 754162, India"
229881,1.312394,103.840535,Singapore 229881
604152,12.2153682,79.2563916,"Tamil Nadu 604152, India"
124406,28.8911244,76.79135579999999,"Haryana 124406, India"
623115,9.2418633,78.3159411,"Tamil Nadu 623115, India"
721420,21.8435963,87.4752551,"West Bengal 721420, India"
721422,21.8756506,87.6285099,"West Bengal 721422, India"
721423,21.7085353,87.60876379999999,"West Bengal 721423, India"
623120,9.1907523,78.41834659999999,"Tamil Nadu 623120, India"
721425,21.9956542,87.68769689999999,"West Bengal 721425, India"
721426,21.9060642,87.28172719999999,"West Bengal 721426, India"
305923,25.9055519,74.1827119,"Rajasthan 305923, India"
721428,21.6294112,87.4950586,"721428, India"
721429,21.8980378,87.5296943,"West Bengal 721429, India"
721430,21.9619062,87.8353278,"West Bengal 721430, India"
721431,21.8557777,87.92367469999999,"West Bengal 721431, India"
721432,21.9270392,87.9040571,"West Bengal 721432, India"
721433,21.76307,87.6729074,"West Bengal 721433, India"
721434,22.0842541,87.6334451,"West Bengal 721434, India"
721435,21.9432535,87.3711477,"West Bengal 721435, India"
721436,21.8485604,87.4108352,"West Bengal 721436, India"
721437,22.1939241,87.4009165,"West Bengal 721437, India"
721438,21.9640884,87.56430399999999,"West Bengal 721438, India"
754207,20.4922,86.2056843,"Odisha 754207, India"
721440,21.9764391,87.5939487,"West Bengal 721440, India"
721441,21.6600087,87.5494745,"West Bengal 721441, India"
721442,21.8188941,87.8353278,"West Bengal 721442, India"
721443,21.9206669,87.45048880000002,"West Bengal 721443, India"
721444,21.9008673,87.7271123,"West Bengal 721444, India"
754213,20.4029395,86.4895463,"Odisha 754213, India"
721446,21.7067902,87.4901086,"721446, India"
721447,21.8018163,87.4703029,"West Bengal 721447, India"
721448,21.7674005,87.55936129999999,"West Bengal 721448, India"
361001,22.4665179,70.0771092,"Jamnagar, Gujarat 361001, India"
361002,22.4896789,70.0354274,"Jamnagar, Gujarat 361002, India"
361003,22.4609265,69.96694459999999,"Gujarat 361003, India"
361004,22.4456023,70.0473367,"Jamnagar, Gujarat 361004, India"
262701,28.0073044,80.6992633,"Uttar Pradesh 262701, India"
262702,27.9221252,80.72698539999999,"Uttar Pradesh 262702, India"
361007,22.4802069,70.094972,"Jamnagar, Gujarat 361007, India"
361008,22.5218259,70.08604059999999,"Gujarat 361008, India"
361009,24.4990746,118.1317625,"Huli, Xiamen, Fujian, China, 361009"
361010,22.3684971,69.6929488,"Gujarat 361010, India"
361011,22.6374283,70.2765481,"Gujarat 361011, India"
361012,24.4901034,118.1039629,"Siming, Xiamen, Fujian, China, 361012"
361013,22.3445877,70.2170209,"Gujarat 361013, India"
721463,21.6328692,87.5272212,"West Bengal 721463, India"
787001,27.2367581,94.1155596,"Assam 787001, India"
721467,22.1125151,87.5296943,"West Bengal 721467, India"
604505,12.5641366,79.5041322,"Tamil Nadu 604505, India"
754239,20.6728375,86.59558129999999,"Odisha 754239, India"
754240,20.6401412,86.4490926,"Odisha 754240, India"
262721,27.8304622,80.8322428,"Uttar Pradesh 262721, India"
262722,27.8478824,81.0975397,"Uttar Pradesh 262722, India"
262723,27.9873127,81.0975397,"Uttar Pradesh 262723, India"
262724,28.1237526,81.0533854,"Uttar Pradesh 262724, India"
262725,27.8245282,80.7436141,"Uttar Pradesh 262725, India"
262726,28.0221647,80.92077370000001,"Uttar Pradesh 262726, India"
262727,27.8094137,80.5216184,"Uttar Pradesh 262727, India"
262728,27.8857227,80.9650023,"Uttar Pradesh 262728, India"
754250,20.5432568,86.3680869,"Odisha 754250, India"
754253,20.3837606,86.4237923,"Odisha 754253, India"
787023,27.1062582,93.9572374,"787023, India"
787026,27.4562774,94.4182089,"Assam 787026, India"
787031,27.2339895,94.0082563,"787031, India"
787032,27.370034,94.17185420000001,"787032, India"
787034,27.471528,94.30515419999999,"Assam 787034, India"
787035,27.5526105,94.33596349999999,"787035, India"
721501,22.7047845,86.681253,"West Bengal 721501, India"
721503,22.3754142,86.8822445,"721503, India"
721504,22.567464,86.96240859999999,"West Bengal 721504, India"
721505,22.5183086,86.8822445,"721505, India"
721506,22.1379856,86.9223432,"721506, India"
721507,22.3776744,87.0024407,"West Bengal 721507, India"
122101,28.3636532,77.0219019,"Haryana 122101, India"
721513,22.3798404,87.12233619999999,"West Bengal 721513, India"
721514,22.4612225,87.01244349999999,"West Bengal 721514, India"
721515,22.6127818,86.8421125,"West Bengal 721515, India"
721516,22.6187329,87.1622344,"West Bengal 721516, India"
721517,22.2809049,86.9223432,"721517, India"
787054,27.0449111,94.0491077,"Assam 787054, India"
787055,27.220403,94.4593791,"Assam 787055, India"
787056,1.3866099,103.841258,Singapore 787056
230001,25.8969374,81.9916586,"Uttar Pradesh 230001, India"
230002,25.8692036,81.91528439999999,"Uttar Pradesh 230002, India"
787059,27.608731,94.7691586,"787059, India"
754292,20.6354314,86.2260131,"Odisha 754292, India"
754293,20.4266521,86.20060079999999,"Odisha 754293, India"
754294,20.1889236,86.3503495,"Odisha 754294, India"
754296,20.6863923,86.1090119,"Odisha 754296, India"
251327,29.6553264,77.973865,"251327, India"
226303,26.6353052,81.0975397,"Uttar Pradesh 226303, India"
415413,17.0920008,74.3411515,"Maharashtra 415413, India"
401403,19.8028306,72.92243289999999,"Maharashtra 401403, India"
761211,18.8468149,84.15406589999999,"Odisha 761211, India"
262801,28.1713071,80.38813329999999,"Uttar Pradesh 262801, India"
262802,28.0384381,80.47714719999999,"Uttar Pradesh 262802, India"
262803,28.2639749,80.38813329999999,"Uttar Pradesh 262803, India"
262804,27.9763773,80.254435,"Uttar Pradesh 262804, India"
262805,27.9487166,80.5216184,"Uttar Pradesh 262805, India"
361110,22.4427425,70.1813018,"Gujarat 361110, India"
124411,28.8357532,76.4678766,"Haryana 124411, India"
361120,22.5210806,70.1693949,"Gujarat 361120, India"
787110,1.397568,103.818627,Singapore 787110
224161,26.6600892,82.32348429999999,"Uttar Pradesh 224161, India"
361130,22.4479259,70.31226149999999,"Gujarat 361130, India"
361140,22.3968995,69.82400249999999,"Gujarat 361140, India"
361141,22.4381594,69.8567625,"Gujarat 361141, India"
361142,22.3547234,69.8061328,"Gujarat 361142, India"
361150,22.533579,70.04435939999999,"Gujarat 361150, India"
721601,22.1391988,87.7271123,"West Bengal 721601, India"
721602,22.0851145,88.069115,"Haldia, West Bengal 721602, India"
721603,22.1909202,88.0411993,"West Bengal 721603, India"
721604,22.0666394,88.11449429999999,"Haldia, West Bengal 721604, India"
721606,21.9770811,88.099845,"West Bengal 721606, India"
721607,22.0334399,88.077862,"Haldia, West Bengal 721607, India"
361160,22.1024886,70.2884528,"Gujarat 361160, India"
361162,22.2374447,70.4550922,"Gujarat 361162, India"
623308,9.886242,78.9401383,"Tamil Nadu 623308, India"
387345,22.6300792,72.8810859,"Gujarat 387345, India"
497101,23.1007537,83.3789389,"Chhattisgarh 497101, India"
361170,22.1714278,69.93121169999999,"Gujarat 361170, India"
623315,9.845232099999999,79.0306032,"Tamil Nadu 623315, India"
800016,25.6054146,85.1673785,"Patna, Bihar 800016, India"
721625,22.0700516,87.9040571,"West Bengal 721625, India"
721626,22.0444077,87.7664934,"West Bengal 721626, India"
721627,22.3319644,87.8844309,"West Bengal 721627, India"
721628,22.142538,87.9824758,"West Bengal 721628, India"
721629,22.282186,87.7271123,"West Bengal 721629, India"
721631,21.9997628,88.0020589,"West Bengal 721631, India"
721632,22.1656385,87.92367469999999,"West Bengal 721632, India"
721633,22.1405324,87.82550069999999,"West Bengal 721633, India"
721634,22.3542204,87.7664934,"West Bengal 721634, India"
721635,22.1205506,88.1388989,"West Bengal 721635, India"
721636,22.3146576,87.92857769999999,"West Bengal 721636, India"
230121,25.9941503,82.37773349999999,"Uttar Pradesh 230121, India"
721642,22.1876714,87.78617109999999,"West Bengal 721642, India"
721643,22.204087,87.9016043,"West Bengal 721643, India"
230124,25.9201997,82.31262939999999,"Uttar Pradesh 230124, India"
230125,26.1161558,81.614468,"Uttar Pradesh 230125, India"
230126,25.8933235,81.7185253,"Uttar Pradesh 230126, India"
230127,25.8887894,82.05705789999999,"Uttar Pradesh 230127, India"
230128,25.8284258,81.71305219999999,"Uttar Pradesh 230128, India"
230129,25.7715677,81.7458845,"Uttar Pradesh 230129, India"
230130,25.8834548,81.7513551,"Uttar Pradesh 230130, India"
230131,25.8531016,81.9425701,"Uttar Pradesh 230131, India"
230132,25.9173176,81.6254283,"Uttar Pradesh 230132, India"
262901,28.2084454,80.5882803,"Uttar Pradesh 262901, India"
230134,25.8650435,82.1604849,"Uttar Pradesh 230134, India"
230135,25.949056,82.1931149,"Uttar Pradesh 230135, India"
230136,25.9594578,81.7458845,"Uttar Pradesh 230136, India"
230137,25.9421757,81.8552196,"Uttar Pradesh 230137, India"
230138,26.0118829,82.269193,"Uttar Pradesh 230138, India"
230139,26.047044,81.63638689999999,"Uttar Pradesh 230139, India"
230141,25.8601069,81.4498717,"Uttar Pradesh 230141, India"
230142,25.9319927,82.09518,"Uttar Pradesh 230142, India"
230143,25.8554417,81.57061089999999,"Uttar Pradesh 230143, India"
230144,25.8939729,81.8333656,"Uttar Pradesh 230144, India"
361220,22.6546422,70.5026941,"Gujarat 361220, India"
585322,17.457156,77.0794705,"Karnataka 585322, India"
382423,23.1836996,72.5737187,"Gujarat 382423, India"
361230,22.5849019,70.31226149999999,"Gujarat 361230, India"
382424,23.1092442,72.584825,"Ahmedabad, Gujarat 382424, India"
284121,25.5209339,78.713608,"284121, India"
361240,22.7658648,70.4788937,"Gujarat 361240, India"
679334,11.3557517,76.2015572,"679334, India"
261303,27.2253282,80.8322428,"Uttar Pradesh 261303, India"
639109,10.8242662,78.0081221,"Tamil Nadu 639109, India"
323001,25.4473156,75.6440842,"Rajasthan 323001, India"
361250,22.6822673,70.3598758,"Gujarat 361250, India"
284123,24.915001,78.5887951,"284123, India"
442502,19.9700239,79.30641519999999,"Chandrapur, Maharashtra 442502, India"
450337,21.6519114,76.2826675,"Madhya Pradesh 450337, India"
623401,9.7491729,78.78162189999999,"Tamil Nadu 623401, India"
623402,33.2891255,103.8756863,"Jiuzhaigou, Aba, Sichuan, China, 623402"
623403,9.7062733,78.97972709999999,"Tamil Nadu 623403, India"
623404,9.799793099999999,78.9853813,"Tamil Nadu 623404, India"
688530,9.6365495,76.30583279999999,"Kerala 688530, India"
623407,9.7763453,78.9401383,"Tamil Nadu 623407, India"
623409,9.7792923,79.0306032,"Tamil Nadu 623409, India"
455440,22.5697931,76.5025742,"Madhya Pradesh 455440, India"
382430,23.0421852,72.6978931,"Gujarat 382430, India"
442505,19.9386959,79.1661407,"Maharashtra 442505, India"
230201,25.6799215,81.5815776,"Uttar Pradesh 230201, India"
230202,25.7772877,81.4388858,"Uttar Pradesh 230202, India"
230204,25.7218011,81.49379929999999,"Uttar Pradesh 230204, India"
361280,22.2959244,69.83591539999999,"Gujarat 361280, India"
442507,19.8937071,79.2958491,"Maharashtra 442507, India"
392155,22.1250085,72.63877,"Gujarat 392155, India"
382435,22.9269331,72.6978931,"Gujarat 382435, India"
425107,21.2183413,75.17788530000001,"Maharashtra 425107, India"
852110,26.0136538,86.61071059999999,"Bihar 852110, India"
263001,29.3763956,79.391605,"Uttarakhand 263001, India"
361306,22.1088167,69.6214562,"Gujarat 361306, India"
852111,26.2850013,86.8671989,"Bihar 852111, India"
361310,22.339996,69.5618746,"Gujarat 361310, India"
361315,22.1498326,69.2400734,"Gujarat 361315, India"
852113,25.8773308,86.85214859999999,"Bihar 852113, India"
361320,22.0126751,69.4069452,"Gujarat 361320, India"
284135,25.3414138,78.509288,"284135, India"
361325,21.92119,69.49037170000001,"Gujarat 361325, India"
415208,17.9855359,73.1585626,"Maharashtra 415208, India"
361330,22.3513121,69.1327869,"Gujarat 361330, India"
394101,21.2417943,72.8810282,"Surat, Gujarat 394101, India"
361335,22.2411565,69.0731799,"Gujarat 361335, India"
394105,21.2634108,72.88699299999999,"Gujarat 394105, India"
394107,21.2406892,72.851219,"Surat, Gujarat 394107, India"
394110,21.3953926,73.1585626,"Gujarat 394110, India"
394111,21.4151423,72.9312921,"Gujarat 394111, India"
361345,22.3838885,69.03741459999999,"Gujarat 361345, India"
361347,22.4471083,69.0433755,"Gujarat 361347, India"
394116,21.5310601,72.9637728,"Gujarat 394116, India"
361350,22.4649185,69.0701995,"Gujarat 361350, India"
781121,26.3376436,91.7733566,"Assam 781121, India"
394120,21.4554227,72.9578676,"Gujarat 394120, India"
394125,21.5040557,72.9814877,"Gujarat 394125, India"
623502,9.398029,78.7589558,"Tamil Nadu 623502, India"
623503,9.363212299999999,78.8665733,"Tamil Nadu 623503, India"
623504,9.334654,78.8269385,"Tamil Nadu 623504, India"
394130,21.3301669,72.86336349999999,"Gujarat 394130, India"
623512,9.3449142,78.97972709999999,"Tamil Nadu 623512, India"
623513,9.42422,78.8948741,"Tamil Nadu 623513, India"
623514,9.473257799999999,78.8892146,"Tamil Nadu 623514, India"
623515,9.228672999999999,78.7532884,"Tamil Nadu 623515, India"
394140,21.2878167,73.1231585,"Gujarat 394140, India"
230301,25.7439692,82.09518,"Uttar Pradesh 230301, India"
230302,25.8156768,82.11695499999999,"Uttar Pradesh 230302, India"
623519,9.281953699999999,79.1520312,"Tamil Nadu 623519, India"
230304,25.7985708,82.0189155,"Uttar Pradesh 230304, India"
132001,29.6386837,77.0794705,"Haryana 132001, India"
623522,9.3812094,78.9175088,"Tamil Nadu 623522, India"
623523,9.2656561,78.8892146,"Tamil Nadu 623523, India"
623524,9.2959382,78.9853813,"Tamil Nadu 623524, India"
623525,9.620538699999999,78.8722341,"Tamil Nadu 623525, India"
394150,21.3144779,72.9342451,"Gujarat 394150, India"
623527,9.4395513,78.6909263,"Tamil Nadu 623527, India"
623528,9.197302700000002,78.62285039999999,"Tamil Nadu 623528, India"
623529,9.2764166,79.23947609999999,"Tamil Nadu 623529, India"
623530,56.7552654,62.0743524,"Sverdlovsk Oblast, Russia, 623530"
394155,21.3218289,73.0051055,"Gujarat 394155, India"
623532,9.291699,78.8495889,"Tamil Nadu 623532, India"
623533,9.2972286,78.6795836,"Tamil Nadu 623533, India"
623534,9.3211256,79.0051685,"Tamil Nadu 623534, India"
394160,21.3269958,73.3944466,"Gujarat 394160, India"
623537,9.5102881,78.8495889,"Tamil Nadu 623537, India"
623538,9.6983999,78.9061921,"Tamil Nadu 623538, India"
394163,21.358854,73.2529464,"Gujarat 394163, India"
852126,25.6925097,86.51986509999999,"Bihar 852126, India"
132022,29.6990234,77.1139984,"Haryana 132022, India"
132023,29.7650496,77.09098089999999,"Haryana 132023, India"
132024,29.7429761,76.7567368,"Haryana 132024, India"
628212,8.621290199999999,77.98243029999999,"Tamil Nadu 628212, India"
394170,21.3652865,73.0346244,"Gujarat 394170, India"
473990,25.0372652,78.0651931,"Madhya Pradesh 473990, India"
628213,8.4797604,78.0252466,"Tamil Nadu 628213, India"
781131,25.8578801,91.3372823,"781131, India"
394180,21.275659,73.0051055,"Gujarat 394180, India"
132037,29.6170352,76.9758274,"Haryana 132037, India"
132039,29.5217315,76.5950555,"Haryana 132039, India"
132040,29.5553521,76.8144298,"Haryana 132040, India"
132041,29.8662899,77.0794705,"Haryana 132041, India"
515671,14.4000475,77.71659249999999,"Andhra Pradesh 515671, India"
628215,8.4933506,78.1165309,"Tamil Nadu 628215, India"
689101,9.3835249,76.56905189999999,"Thiruvalla, Kerala 689101, India"
132046,29.51071,76.7105632,"Haryana 132046, India"
689103,9.4056698,76.5806097,"Kerala 689103, India"
689104,1.3990229,103.751423,Singapore 689104
628216,8.5173411,78.10797629999999,"Tamil Nadu 628216, India"
689106,9.3490484,76.5892774,"Kerala 689106, India"
689107,9.404556999999999,76.5517132,"Kerala 689107, India"
689108,9.3769901,76.5401527,"Kerala 689108, India"
689109,9.3455639,76.56905189999999,"Kerala 689109, India"
263126,29.2723107,79.5266211,"Uttarakhand 263126, India"
263127,29.3438433,79.4872619,"Uttarakhand 263127, India"
263128,29.3111187,79.4366324,"Uttarakhand 263128, India"
689113,9.392406399999999,76.55315809999999,"Kerala 689113, India"
689115,9.367918099999999,76.5863882,"Kerala 689115, India"
263132,29.410079,79.67266320000002,"Uttarakhand 263132, India"
263134,29.5562609,79.3465557,"Uttarakhand 263134, India"
263135,29.4753627,79.4816378,"Uttarakhand 263135, India"
263136,29.3147087,79.6277523,"Uttarakhand 263136, India"
263137,29.4295245,79.5547244,"Uttarakhand 263137, India"
263138,29.5107273,79.63898209999999,"Uttarakhand 263138, India"
263139,29.1520637,79.60528839999999,"Uttarakhand 263139, India"
263140,29.2824257,79.2225576,"Uttarakhand 263140, India"
689126,9.298101899999999,76.60372219999999,"Kerala 689126, India"
263145,29.0202741,79.4647633,"Tanda Range, Uttarakhand 263145, India"
425108,21.3197446,75.27123929999999,"Maharashtra 425108, India"
263148,28.9326375,79.4478858,"Uttarakhand 263148, India"
263149,28.9733562,79.5266211,"Uttarakhand 263149, India"
263150,29.0773057,79.1717839,"Uttarakhand 263150, India"
263151,29.0546428,79.6838874,"Uttarakhand 263151, India"
263152,29.0526843,79.2225576,"263152, India"
263153,29.0087308,79.391605,"Uttarakhand 263153, India"
623603,9.4163046,78.3159411,"Tamil Nadu 623603, India"
263156,29.3672703,79.5294318,"Uttarakhand 263156, India"
263157,29.2366677,79.80726109999999,"Uttarakhand 263157, India"
263158,29.4648339,79.56596329999999,"Uttarakhand 263158, India"
263159,29.4696362,79.2676668,"Uttarakhand 263159, India"
263160,29.047541,79.30148450000002,"Uttarakhand 263160, India"
394235,21.0645749,72.9165266,"Gujarat 394235, India"
852138,26.2140772,86.6006249,"Bihar 852138, India"
394240,20.9692961,73.17036279999999,"Gujarat 394240, India"
230401,26.0458447,82.0298154,"Uttar Pradesh 230401, India"
230402,25.7888727,81.84429340000001,"Uttar Pradesh 230402, India"
230403,25.9753894,82.0298154,"Uttar Pradesh 230403, India"
230404,25.7813942,81.9207423,"Uttar Pradesh 230404, India"
394245,20.9247086,73.12905959999999,"Gujarat 394245, India"
132102,29.20701549999999,77.03917539999999,"Haryana 132102, India"
132103,29.4107176,77.0794705,"Haryana 132103, India"
132104,29.3319733,77.09098089999999,"Haryana 132104, India"
132105,29.3799485,76.8836261,"Haryana 132105, India"
132106,29.3845333,76.9297354,"Haryana 132106, India"
132107,29.2976701,76.745195,"Haryana 132107, India"
132108,29.3251934,77.0219019,"Haryana 132108, India"
132113,29.4288777,76.8028933,"Haryana 132113, India"
132114,29.5384407,76.9873477,"132114, India"
132115,29.1971931,77.1139984,"132115, India"
132116,29.7615507,76.9412601,"Haryana 132116, India"
132117,29.8979883,76.9412601,"Haryana 132117, India"
132122,29.2469096,77.0967357,"132122, India"
394270,21.1170036,72.64468289999999,"Hazira, Gujarat 394270, India"
583103,15.1991737,76.9527836,"Karnataka 583103, India"
382470,23.1049526,72.5610662,"Ahmedabad, Gujarat 382470, India"
757028,21.6498087,86.9323627,"Odisha 757028, India"
132140,29.4916335,76.860565,"Haryana 132140, India"
132145,29.3115127,76.8836261,"Haryana 132145, India"
786611,27.1629975,95.11194069999999,"Assam 786611, India"
422303,20.0679189,74.1357407,"Maharashtra 422303, India"
132157,29.8385942,76.8028933,"Haryana 132157, India"
786613,27.2023038,94.99744609999999,"Assam 786613, India"
394305,21.129858,72.9342451,"Gujarat 394305, India"
382475,23.0773592,72.6189122,"Ahmedabad, Gujarat 382475, India"
786614,27.2216109,95.42537569999999,"Assam 786614, India"
394310,21.1833231,73.0051055,"Gujarat 394310, India"
394315,21.0797621,72.9519622,"Gujarat 394315, India"
394317,21.1040552,72.9637728,"Gujarat 394317, India"
394320,21.2279764,73.0464309,"Gujarat 394320, India"
394325,21.1760108,72.9342451,"Gujarat 394325, India"
394326,21.2297693,72.9519622,"Gujarat 394326, India"
394327,21.1649415,72.96672540000002,"Gujarat 394327, India"
623704,9.3786592,78.49792479999999,"Tamil Nadu 623704, India"
623705,9.5172031,78.72494689999999,"Tamil Nadu 623705, India"
394330,21.2598736,73.0759446,"Gujarat 394330, India"
623707,9.5444398,78.5547283,"Tamil Nadu 623707, India"
623708,9.3278868,78.44677449999999,"Tamil Nadu 623708, India"
394335,21.2253907,73.2470486,"Gujarat 394335, India"
623712,9.4253068,78.5887951,"Tamil Nadu 623712, India"
382480,23.0797198,72.5744678,"Ahmedabad, Gujarat 382480, India"
394340,21.1636444,73.2647416,"Gujarat 394340, India"
230501,26.0385548,81.89890799999999,"Uttar Pradesh 230501, India"
230502,25.9816869,81.931657,"Uttar Pradesh 230502, India"
230503,26.0101461,81.81150509999999,"Uttar Pradesh 230503, India"
394345,21.1906029,73.0759446,"Gujarat 394345, India"
394350,21.0520716,73.0759446,"Gujarat 394350, India"
394352,21.0408731,73.0228173,"Gujarat 394352, India"
388480,22.4557097,72.81609759999999,"Gujarat 388480, India"
394355,21.1540631,73.17036279999999,"Gujarat 394355, India"
786622,27.4711079,94.93768949999999,"Dibrugarh, Assam 786622, India"
394360,21.2448911,73.38265849999999,"Gujarat 394360, India"
786623,27.1399352,95.4149003,"786623, India"
394365,21.072972,73.6300729,"394365, India"
425109,20.9049434,75.3178952,"Maharashtra 425109, India"
394370,21.4836442,74.1592278,"394370, India"
394375,21.3229699,73.8183804,"Gujarat 394375, India"
394380,21.5254604,74.1122506,"394380, India"
475330,26.0481265,77.88245959999999,"Madhya Pradesh 475330, India"
606707,12.1586226,78.9627624,"Tamil Nadu 606707, India"
638751,11.1366567,77.5046101,"Tamil Nadu 638751, India"
394405,21.4628012,73.0287209,"Gujarat 394405, India"
394410,21.4701469,73.0995528,"Gujarat 394410, India"
713384,23.6367424,87.1871537,"West Bengal 713384, India"
394421,21.4455431,73.1408613,"Gujarat 394421, India"
722102,23.2773076,87.0474368,"West Bengal 722102, India"
722107,23.221851,87.1048702,"West Bengal 722107, India"
623806,9.2988347,79.0348416,"Tamil Nadu 623806, India"
722111,23.3729435,87.4108352,"West Bengal 722111, India"
722112,23.297268,87.51485369999999,"West Bengal 722112, India"
394440,21.4657187,73.3944466,"Gujarat 394440, India"
722121,23.091254,86.96240859999999,"West Bengal 722121, India"
722122,23.0501075,87.32149079999999,"West Bengal 722122, India"
606709,12.2742573,78.7896921,"Tamil Nadu 606709, India"
394445,21.4384822,73.5829689,"Gujarat 394445, India"
853201,25.4175884,86.9223432,"Bihar 853201, India"
853202,25.3598435,86.9924358,"Bihar 853202, India"
853203,25.3810254,86.87221459999999,"Bihar 853203, India"
722132,23.3179097,86.9924358,"West Bengal 722132, India"
722133,23.4266744,87.0824045,"West Bengal 722133, India"
722134,22.7572029,86.9223432,"West Bengal 722134, India"
722135,22.9444828,86.761749,"West Bengal 722135, India"
722136,23.1848941,86.8822445,"West Bengal 722136, India"
722137,23.3752459,86.8822445,"West Bengal 722137, India"
722138,23.0044493,87.4405786,"West Bengal 722138, India"
722139,23.2691623,86.9323627,"West Bengal 722139, India"
722140,22.9468847,86.8822445,"West Bengal 722140, India"
722141,23.0189713,87.60876379999999,"West Bengal 722141, India"
722142,23.5123036,87.2120599,"West Bengal 722142, India"
722143,23.5573286,87.0724164,"West Bengal 722143, India"
722144,23.0956618,87.20209899999999,"West Bengal 722144, India"
460001,21.9237075,77.79097759999999,"Madhya Pradesh 460001, India"
722146,23.2166806,86.98743259999999,"West Bengal 722146, India"
722147,23.1087782,87.27178099999999,"West Bengal 722147, India"
460004,1.322552,103.933145,Singapore 460004
722149,22.9535129,87.2419299,"West Bengal 722149, India"
722150,22.7594613,87.0424393,"West Bengal 722150, India"
722151,22.9506733,87.0824045,"West Bengal 722151, India"
722152,23.046626,87.12233619999999,"West Bengal 722152, India"
722153,23.5784257,86.9323627,"West Bengal 722153, India"
722154,23.0177633,87.5296943,"West Bengal 722154, India"
722155,23.2546203,87.1073658,"West Bengal 722155, India"
722156,22.9641957,87.1722037,"West Bengal 722156, India"
722157,23.1929428,87.32149079999999,"West Bengal 722157, India"
722158,23.5195503,86.96240859999999,"West Bengal 722158, India"
722160,22.854704,87.0424393,"West Bengal 722160, India"
722161,22.9586884,87.55936129999999,"West Bengal 722161, India"
722162,22.6974839,86.91232169999999,"West Bengal 722162, India"
722163,23.0629189,87.0374413,"West Bengal 722163, India"
722164,23.4222801,87.1672193,"West Bengal 722164, India"
722165,23.1104563,87.3711477,"West Bengal 722165, India"
722166,23.510126,87.0923906,"West Bengal 722166, India"
792105,27.602758,95.8459341,"792105, India"
722168,23.4355952,87.2469064,"West Bengal 722168, India"
722169,23.3439501,87.1123564,"West Bengal 722169, India"
722170,23.1813627,87.0074423,"West Bengal 722170, India"
722171,23.0705542,86.81701319999999,"West Bengal 722171, India"
722172,23.1968489,87.03994039999999,"West Bengal 722172, India"
591101,1.318325,103.775346,Singapore 591101
591102,15.7843211,74.8507131,"Karnataka 591102, India"
722175,23.316023,87.04993530000002,"West Bengal 722175, India"
591104,15.6962421,74.89749250000001,"Karnataka 591104, India"
722177,23.4615249,87.1996084,"West Bengal 722177, India"
591106,15.5461155,74.7102958,"Karnataka 591106, India"
591107,16.1489491,74.6751731,"Karnataka 591107, India"
591108,15.8330262,74.41738769999999,"591108, India"
591109,15.7709698,74.66346399999999,"Karnataka 591109, India"
591110,15.7189855,75.2245693,"Karnataka 591110, India"
591111,15.8293365,75.0026972,"Karnataka 591111, India"
591112,15.6340341,74.66346399999999,"Karnataka 591112, India"
591113,15.9259244,74.51703189999999,"Karnataka 591113, India"
591114,16.0361951,75.17788530000001,"Karnataka 591114, India"
591115,15.598339,74.8039205,"Karnataka 591115, India"
591116,15.8162667,75.14286320000001,"Karnataka 591116, India"
591117,15.8922666,75.0844757,"Karnataka 591117, India"
394510,21.1925397,72.6505957,"Gujarat 394510, India"
591119,15.9281292,74.9442585,"Karnataka 591119, India"
591120,15.5817415,74.5697617,"Karnataka 591120, India"
591121,15.9181213,74.8039205,"Karnataka 591121, India"
591122,16.0943167,74.7102958,"Karnataka 591122, India"
591123,16.0033835,75.36453689999999,"Karnataka 591123, India"
394516,21.1653555,72.69088909999999,"Gujarat 394516, India"
394517,21.1630194,72.67128939999999,"Gujarat 394517, India"
394518,21.1456439,72.7594084,"Surat, Gujarat 394518, India"
591127,15.8691196,75.41116439999999,"Karnataka 591127, India"
394520,21.2766125,72.79246119999999,"Gujarat 394520, India"
591129,16.0475401,75.0143824,"Karnataka 591129, India"
591130,16.0885718,75.27123929999999,"Karnataka 591130, India"
591131,15.7130624,74.651754,"Karnataka 591131, India"
722204,23.4011081,87.3165222,"West Bengal 722204, India"
722205,23.1389089,87.6679765,"West Bengal 722205, India"
722206,23.1967924,87.55936129999999,"West Bengal 722206, India"
722207,23.2894802,87.4009165,"West Bengal 722207, India"
591136,16.2301861,75.1662121,"Karnataka 591136, India"
722209,23.1834902,87.4703029,"West Bengal 722209, India"
394530,21.3794679,72.6742455,"Gujarat 394530, India"
591143,15.950608,74.4642861,"591143, India"
591147,15.9236649,74.72200169999999,"Karnataka 591147, India"
394540,21.3972482,72.7333604,"Gujarat 394540, India"
443303,20.2765888,76.7567368,"Maharashtra 443303, India"
591153,15.698575,74.7688173,"Karnataka 591153, India"
591156,15.9768908,74.511172,"591156, India"
394550,21.0817332,72.7278798,"Surat, Gujarat 394550, India"
755001,20.8489266,86.33007049999999,"Odisha 755001, India"
755003,20.650153,86.357952,"Odisha 755003, India"
755004,20.710721,86.4086061,"Odisha 755004, India"
755005,20.731518,86.26664629999999,"Odisha 755005, India"
755006,20.8310084,86.4693235,"Odisha 755006, India"
755007,20.8280423,86.32753509999999,"Odisha 755007, India"
755008,20.834821,86.1332264,"Odisha 755008, India"
755009,20.8229815,86.19613149999999,"Odisha 755009, India"
755010,20.6453634,86.4136687,"Odisha 755010, India"
755011,20.7854305,86.5703554,"Odisha 755011, India"
755012,20.7059162,86.4642666,"Odisha 755012, India"
591173,16.7014501,75.2537397,"Karnataka 591173, India"
755014,20.8358099,86.4136687,"Odisha 755014, India"
755015,20.8963612,86.1853474,"Odisha 755015, India"
755016,20.7131982,86.5299673,"Odisha 755016, India"
755017,20.7860582,86.31231969999999,"Odisha 755017, India"
755018,20.9723363,85.8690933,"Odisha 755018, India"
755019,20.9780749,86.1141045,"Odisha 755019, India"
755020,20.9387566,86.0860891,"Odisha 755020, India"
460110,1.332529,103.934642,Singapore 460110
755023,20.8217326,86.0427626,"Odisha 755023, India"
755024,20.7577906,86.1090119,"Odisha 755024, India"
755025,20.9929296,86.2463337,"Odisha 755025, India"
755026,20.9752528,85.9917437,"Odisha 755026, India"
755027,20.7821386,86.4086061,"Odisha 755027, India"
755028,21.0655286,85.78716630000001,"Odisha 755028, India"
755036,20.8330506,86.5703554,"Odisha 755036, India"
689501,9.2116625,76.68169619999999,"Kerala 689501, India"
689502,9.215772099999999,76.7192221,"Kerala 689502, India"
689503,9.2519572,76.6730348,"Kerala 689503, India"
689504,9.2890144,76.6499348,"Kerala 689504, India"
591201,16.4167319,74.5814773,"Karnataka 591201, India"
689506,9.326479899999999,76.5661622,"Kerala 689506, India"
689507,9.2799179,76.6961305,"Kerala 689507, India"
755044,20.7036667,86.0835415,"Odisha 755044, India"
689509,9.2523804,76.6123884,"Kerala 689509, India"
689510,9.3165211,76.5892774,"Kerala 689510, India"
689511,9.2751131,76.56905189999999,"Kerala 689511, India"
689512,9.1813492,76.6672602,"Kerala 689512, India"
394601,21.1213355,73.0759446,"Gujarat 394601, India"
755050,20.7584764,86.1395598,"Odisha 755050, India"
591211,16.4501835,74.41738769999999,"Karnataka 591211, India"
591212,16.8557702,75.0844757,"591212, India"
591213,16.515392,74.6751731,"Karnataka 591213, India"
591214,16.5242161,74.48773059999999,"Karnataka 591214, India"
591215,16.5170962,74.3939339,"591215, India"
689520,9.2844457,76.6008334,"Kerala 689520, India"
591217,16.5628416,74.8507131,"Karnataka 591217, India"
591218,16.2083756,74.8624092,"Karnataka 591218, India"
591219,16.5048168,74.45842449999999,"Karnataka 591219, India"
591220,16.5238407,74.9442585,"Karnataka 591220, India"
591221,16.1632129,74.5580454,"591221, India"
755062,20.8111544,86.3731536,"Odisha 755062, India"
591223,16.6794477,74.72200169999999,"591223, India"
591224,16.2911068,74.89749250000001,"Karnataka 591224, India"
591225,16.3163823,74.4642861,"Karnataka 591225, India"
591226,16.3709274,74.5814773,"Karnataka 591226, India"
689531,9.3408441,76.6585978,"Kerala 689531, India"
394620,21.0847723,73.17036279999999,"Gujarat 394620, India"
591229,16.5152037,74.29422079999999,"591229, India"
591230,16.7140308,75.1895576,"Karnataka 591230, India"
591231,16.1981479,74.72200169999999,"Karnataka 591231, India"
591232,16.8028703,74.9910112,"591232, India"
591233,16.1464141,74.95594799999999,"Karnataka 591233, India"
624002,10.3520413,77.9453091,"Tamil Nadu 624002, India"
591235,16.4214564,74.95594799999999,"Karnataka 591235, India"
624004,10.397014,77.9681544,"Tamil Nadu 624004, India"
624005,10.4049005,78.0309542,"Tamil Nadu 624005, India"
394630,20.9580741,73.28833,"Gujarat 394630, India"
591239,16.5048462,74.5346103,"Karnataka 591239, India"
591240,16.5834006,75.1311874,"Karnataka 591240, India"
394633,20.9675073,73.38265849999999,"Gujarat 394633, India"
591242,16.6106192,74.72200169999999,"591242, India"
394635,20.8693475,73.4415929,"Gujarat 394635, India"
591244,16.5330511,74.6049061,"Karnataka 591244, India"
689549,9.3504039,76.6961305,"Kerala 689549, India"
591246,16.0963306,74.5814773,"Karnataka 591246, India"
591247,16.4872156,74.6049061,"Karnataka 591247, India"
394640,21.0174575,73.2470486,"Gujarat 394640, India"
394641,21.0066515,73.3119159,"Gujarat 394641, India"
224126,26.7627701,81.8552196,"Uttar Pradesh 224126, India"
721134,22.42703,87.86479609999999,"West Bengal 721134, India"
591254,16.0859517,74.4408385,"591254, India"
175001,31.6962683,76.9239727,"Himachal Pradesh 175001, India"
394650,21.1293076,73.38265849999999,"Gujarat 394650, India"
394651,21.1882834,73.3944466,"Gujarat 394651, India"
175002,31.733457,76.958545,"Himachal Pradesh 175002, India"
394655,21.0080516,73.4415929,"Gujarat 394655, India"
591265,16.8268632,75.3178952,"591265, India"
689571,9.3693771,76.51847409999999,"Kerala 689571, India"
394660,21.2111496,73.5653021,"Gujarat 394660, India"
689573,9.382335,76.4678766,"Kuttanad Taluk, Kerala 689573, India"
689574,1.394469,103.751334,Singapore 689574
175004,31.7179197,77.0794705,"Himachal Pradesh 175004, India"
415303,17.2034017,74.370477,"Maharashtra 415303, India"
425111,20.8420219,75.1311874,"Maharashtra 425111, India"
689581,9.4362981,76.6008334,"Kerala 689581, India"
394670,21.2104726,73.5005111,"Gujarat 394670, India"
689583,9.4078874,76.63838319999999,"Kerala 689583, India"
689584,9.4345021,76.66004149999999,"Mallappally, Kerala 689584, India"
263601,29.639499,79.67266320000002,"Uttarakhand 263601, India"
689586,9.4185683,76.70479040000001,"Kerala 689586, India"
689587,9.4417876,76.6730348,"Kerala 689587, India"
689588,9.4426721,76.6961305,"Kerala 689588, India"
689589,9.4602407,76.6585978,"Kerala 689589, India"
689590,9.4530815,76.4736602,"Kerala 689590, India"
689591,9.3984633,76.5343721,"Kerala 689591, India"
689592,9.422712599999999,76.7423094,"Kerala 689592, India"
852212,25.8463879,86.5299673,"Bihar 852212, India"
689594,9.4376319,76.6354952,"Kerala 689594, India"
689595,9.428100299999999,76.4592007,"Kuttanad Taluk, Kerala 689595, India"
460220,21.6285535,77.6077865,"460220, India"
689597,9.4194067,76.6557102,"Kerala 689597, India"
460225,21.7578138,77.76809519999999,"Madhya Pradesh 460225, India"
689602,9.4241708,76.63838319999999,"Kerala 689602, India"
263619,29.8244379,79.84087869999999,"Uttarakhand 263619, India"
263620,29.6077595,79.6333674,"Uttarakhand 263620, India"
263621,29.7732781,79.4816378,"Uttarakhand 263621, India"
591302,15.6172285,74.42911350000001,"Karnataka 591302, India"
263623,29.5616783,79.8520818,"Uttarakhand 263623, India"
263624,29.6588318,79.77363059999999,"Uttarakhand 263624, India"
263625,29.5053886,79.7175517,"Uttarakhand 263625, India"
263626,29.4804887,79.84087869999999,"Uttarakhand 263626, India"
689611,9.3623476,76.72499429999999,"Kerala 689611, India"
263628,29.6992829,79.8520818,"Uttarakhand 263628, India"
263629,29.8095083,79.5772008,"Uttarakhand 263629, India"
689614,9.3551912,76.75096599999999,"Kerala 689614, India"
689615,9.4122915,76.7538514,"Kerala 689615, India"
263632,30.181578,79.87448359999999,"Uttarakhand 263632, India"
263633,29.9878381,80.03113640000001,"Uttarakhand 263633, India"
263634,29.8983129,79.9080757,"Uttarakhand 263634, India"
263635,29.9652811,79.59405439999999,"Uttarakhand 263635, India"
263636,29.6941515,79.63898209999999,"Uttarakhand 263636, India"
263637,29.7575474,79.5715822,"Uttarakhand 263637, India"
263638,29.7382001,79.61652099999999,"Uttarakhand 263638, India"
689623,9.2930836,76.5430429,"Kerala 689623, India"
263640,29.8805622,79.9752212,"Uttarakhand 263640, India"
689625,9.2554252,76.69324379999999,"Kerala 689625, India"
263642,29.8297972,79.7624177,"Uttarakhand 263642, India"
263643,29.6271446,79.58843689999999,"Uttarakhand 263643, India"
394716,20.9433672,73.7242486,"Gujarat 394716, India"
852218,26.1594453,86.7919009,"Bihar 852218, India"
263646,29.5681855,79.2112769,"Uttarakhand 263646, India"
394720,20.6402971,73.7007088,"394720, India"
311022,25.8595155,74.7102958,"Rajasthan 311022, India"
263651,29.6340581,79.4591378,"Uttarakhand 263651, India"
263652,29.6834727,79.5041322,"Uttarakhand 263652, India"
263653,29.766042,79.391605,"Uttarakhand 263653, India"
624103,10.213801,77.355413,"Tamil Nadu 624103, India"
263656,29.8927871,79.4028639,"Uttarakhand 263656, India"
689641,9.3430324,76.71633589999999,"Kerala 689641, India"
394730,20.7399137,73.5358541,"394730, India"
689643,9.29965,76.71633589999999,"Kerala 689643, India"
591340,16.2476997,74.54046939999999,"Karnataka 591340, India"
263661,29.8391415,79.1661407,"Uttarakhand 263661, India"
689646,9.2376332,76.7971247,"Kerala 689646, India"
263663,29.60572669999999,79.391605,"Uttarakhand 263663, India"
689648,9.2151053,76.7740475,"Kerala 689648, India"
263665,29.79958629999999,79.1717839,"Uttarakhand 263665, India"
689650,9.336746699999999,76.7653924,"Kerala 689650, India"
263667,29.7074384,79.233837,"Uttarakhand 263667, India"
689652,9.2710285,76.7480805,"Kerala 689652, India"
689653,9.271011,76.8201976,"Kerala 689653, India"
689654,9.328927499999999,76.7019038,"Kerala 689654, India"
313205,24.7189678,74.0887576,"Rajasthan 313205, India"
689656,9.2189914,76.8057776,"Kerala 689656, India"
263676,29.7000187,79.1435645,"Uttarakhand 263676, India"
689661,9.3222059,76.81154579999999,"Kerala 689661, India"
263678,29.6165192,79.5266211,"Uttarakhand 263678, India"
263679,30.1250752,80.03113640000001,"Uttarakhand 263679, India"
263680,29.6529616,79.2676668,"Uttarakhand 263680, India"
689666,9.290095299999999,76.8230815,"Kerala 689666, India"
689667,9.339016500000001,77.04493269999999,"Kerala 689667, India"
689668,1.386643,103.74503,Singapore 689668
689671,9.2948719,76.8057776,"Kerala 689671, India"
689672,9.3460786,76.7971247,"Kerala 689672, India"
689673,9.3790762,76.8086617,"Kerala 689673, India"
689674,1.386651,103.745143,Singapore 689674
689675,1.38602,103.742937,Singapore 689675
689676,9.422078599999999,76.7971247,"Kerala 689676, India"
689677,1.386074,103.742344,Singapore 689677
689678,9.3055021,76.8000091,"Kerala 689678, India"
362001,21.5128191,70.4610427,"Gujarat 362001, India"
362002,21.556265,70.39558389999999,"Gujarat 362002, India"
441915,21.475755,79.8520818,"Maharashtra 441915, India"
530009,17.724186,83.2345405,"Visakhapatnam, Andhra Pradesh 530009, India"
786692,27.372316,95.31547839999999,"Assam 786692, India"
689691,9.2180964,76.854799,"Kerala 689691, India"
689692,9.2506127,76.854799,"Kerala 689692, India"
689693,9.1595748,76.8836261,"Kerala 689693, India"
689694,9.1202065,76.8432663,"Kerala 689694, India"
362015,21.4656926,70.4491417,"Gujarat 362015, India"
689696,9.1092078,76.9873477,"Kerala 689696, India"
788001,24.82321,92.80163689999999,"Assam 788001, India"
689698,9.1960012,76.8432663,"Kerala 689698, India"
689699,9.180019399999999,77.1485163,"689699, India"
362020,21.5463814,70.78820999999999,"Gujarat 362020, India"
721158,22.4921032,87.83041449999999,"West Bengal 721158, India"
788006,24.8124361,92.82281239999999,"Assam 788006, India"
788007,24.823534,92.7842053,"Silchar, Assam 788007, India"
788009,24.8352103,92.8726747,"Assam 788009, India"
460330,22.09742,77.6077865,"Madhya Pradesh 460330, India"
788011,24.7011257,92.7481176,"Assam 788011, India"
493101,21.7230369,81.7568253,"Chhattisgarh 493101, India"
788014,24.7682835,92.8053731,"Assam 788014, India"
788015,24.7861686,92.8003916,"Assam 788015, India"
362037,21.6077382,70.44319109999999,"Gujarat 362037, India"
493111,21.3421843,81.71305219999999,"Chhattisgarh 493111, India"
788025,24.8923434,92.6685736,"Assam 788025, India"
394810,21.4842142,72.79246119999999,"Gujarat 394810, India"
530015,17.6972224,83.22115389999999,"Visakhapatnam, Andhra Pradesh 530015, India"
493116,21.4885028,81.8005724,"Chhattisgarh 493116, India"
493118,21.7832451,82.0189155,"Chhattisgarh 493118, India"
788031,24.8875104,92.92758359999999,"Assam 788031, India"
530016,17.7294211,83.3014319,"Visakhapatnam, Andhra Pradesh 530016, India"
175030,31.44880479999999,76.8086617,"Himachal Pradesh 175030, India"
530017,17.7365837,83.33886079999999,"Visakhapatnam, Andhra Pradesh 530017, India"
785667,26.9950196,94.53150289999999,"Assam 785667, India"
624201,10.159119,77.93959699999999,"Tamil Nadu 624201, India"
624202,10.1742697,77.7566523,"Tamil Nadu 624202, India"
175031,31.4788442,77.04493269999999,"Himachal Pradesh 175031, India"
624204,10.239397,77.7337628,"Tamil Nadu 624204, India"
530018,17.7439272,83.2519389,"Visakhapatnam, Andhra Pradesh 530018, India"
624206,10.2181435,77.899604,"Tamil Nadu 624206, India"
624208,10.1719962,77.84244559999999,"Tamil Nadu 624208, India"
175032,32.0050054,76.7221082,"Himachal Pradesh 175032, India"
624210,10.2781416,77.5963271,"Tamil Nadu 624210, India"
624211,10.2134113,77.7738163,"Tamil Nadu 624211, India"
624212,10.3583047,77.67651839999999,"Tamil Nadu 624212, India"
624215,10.2005673,77.8710285,"Tamil Nadu 624215, India"
624216,10.2966373,77.64788519999999,"Tamil Nadu 624216, India"
231001,25.1388133,82.56727269999999,"Uttar Pradesh 231001, India"
624219,10.1117414,77.8481628,"Tamil Nadu 624219, India"
624220,10.0863519,77.7566523,"Tamil Nadu 624220, India"
754025,20.5338177,85.9406745,"Odisha 754025, India"
530022,17.7478217,83.3228225,"Visakhapatnam, Andhra Pradesh 530022, India"
522004,16.3067868,80.3964824,"Andhra Pradesh 522004, India"
224189,26.7197062,81.9207423,"Uttar Pradesh 224189, India"
530024,17.7469111,83.29608309999999,"Visakhapatnam, Andhra Pradesh 530024, India"
486335,24.7200894,82.10606829999999,"486335, India"
530026,17.6850754,83.2104426,"Visakhapatnam, Andhra Pradesh 530026, India"
362110,21.4836027,70.645473,"Gujarat 362110, India"
788098,24.8388982,92.9875565,"Assam 788098, India"
530027,17.7466373,83.20240799999999,"Visakhapatnam, Andhra Pradesh 530027, India"
458330,24.6593392,74.8390162,"458330, India"
788101,24.792642,92.92758359999999,"Assam 788101, India"
788102,24.8855248,93.0275802,"Assam 788102, India"
788103,24.7974916,92.9825559,"Assam 788103, India"
362120,21.3849762,70.6811613,"Gujarat 362120, India"
194403,34.1290976,76.0623979,194403
144033,31.1640126,75.58588859999999,"Punjab 144033, India"
852101,25.7504764,87.0024407,"Bihar 852101, India"
524314,14.4836865,80.08701549999999,"Andhra Pradesh 524314, India"
524318,14.600741,80.1316927,"Andhra Pradesh 524318, India"
852114,25.9370539,86.8822445,"Bihar 852114, India"
852116,25.6085634,87.0024407,"Bihar 852116, India"
770073,22.0600216,84.0801613,"Odisha 770073, India"
770074,22.3940918,84.1224036,"770074, India"
852129,25.6860106,86.7516942,"Bihar 852129, India"
852131,26.1538816,86.5501654,"Bihar 852131, India"
123303,28.4120444,76.3521514,"Haryana 123303, India"
770076,22.0130319,83.7730237,"Odisha 770076, India"
142024,30.8444549,75.5393155,"Punjab 142024, India"
590017,1.339749,103.772568,Singapore 590017
322251,26.363822,77.2405153,"322251, India"
422221,20.1219598,73.9065883,"Maharashtra 422221, India"
721125,22.5344881,87.1123564,"West Bengal 721125, India"
721126,22.4222783,87.5296943,"West Bengal 721126, India"
721128,22.7139962,87.1622344,"West Bengal 721128, India"
721129,22.5731534,87.28172719999999,"West Bengal 721129, India"
852202,25.8237115,86.5703554,"Bihar 852202, India"
721133,22.0960205,87.2419299,"West Bengal 721133, India"
453331,22.6066025,75.7894716,"Madhya Pradesh 453331, India"
415102,17.4568745,74.5228916,"Maharashtra 415102, India"
852215,26.4082946,86.8421125,"Bihar 852215, India"
603403,12.6382649,79.6614376,"Tamil Nadu 603403, India"
852217,25.7582715,86.8119917,"Bihar 852217, India"
852219,25.8737689,86.6913222,"Bihar 852219, India"
852220,25.606061,86.8822445,"Bihar 852220, India"
852221,25.8024107,86.67118169999999,"Bihar 852221, India"
721154,22.4444461,87.83041449999999,"West Bengal 721154, India"
721157,22.822032,87.2120599,"West Bengal 721157, India"
431005,19.8540341,75.3353875,"Aurangabad, Maharashtra 431005, India"
581352,14.8629649,74.12986839999999,"Karnataka 581352, India"
522661,16.2545627,79.84087869999999,"Andhra Pradesh 522661, India"
679335,10.8620651,76.2826675,"Kerala 679335, India"
628501,9.1748871,77.85673799999999,"Tamil Nadu 628501, India"
781023,26.1421435,91.8269573,"Guwahati, Assam 781023, India"
191202,34.3298401,75.0143824,191202
841101,25.6892551,85.1583064,"Bihar 841101, India"
721232,22.6264091,87.6383797,"West Bengal 721232, India"
754001,20.3493312,85.9355648,"Odisha 754001, India"
754002,20.2905718,85.9662154,"Odisha 754002, India"
781027,26.1410085,91.9148091,"Assam 781027, India"
226301,26.6736799,80.9650023,"Uttar Pradesh 226301, India"
754005,20.43625,85.83838569999999,"Odisha 754005, India"
328022,26.7847985,77.53901270000001,"Rajasthan 328022, India"
328023,1.3234919,103.8606719,Singapore 328023
328024,26.8526645,77.91674569999999,"Rajasthan 328024, India"
754009,20.3303358,85.4066,"Odisha 754009, India"
721242,22.8163902,87.5988876,"West Bengal 721242, India"
754011,20.2203773,86.0172595,"Odisha 754011, India"
328028,26.6193627,77.76809519999999,"Rajasthan 328028, India"
486117,1.329856,103.967862,Singapore 486117
262501,29.6312609,80.1651854,"Uttarakhand 262501, India"
262502,29.5816896,80.1930859,"Uttarakhand 262502, India"
431505,19.3222644,76.4794435,"Maharashtra 431505, India"
328041,26.7041864,77.67651839999999,"Rajasthan 328041, India"
754028,20.5925795,85.9100089,"Odisha 754028, India"
754029,20.4914719,85.6640365,"Odisha 754029, India"
754032,20.4993166,85.0649071,"Odisha 754032, India"
431507,19.3477479,76.2015572,"Maharashtra 431507, India"
754037,20.4309095,85.1686743,"Odisha 754037, India"
142057,1.292802,103.810934,Singapore 142057
688504,9.4729827,76.4273844,"Kuttanad Taluk, Kerala 688504, India"
688505,9.428216599999999,76.3926668,"Kuttanad Taluk, Kerala 688505, India"
688506,9.5116678,76.4447397,"Kerala 688506, India"
227805,26.3188892,81.87706709999999,"Uttar Pradesh 227805, India"
532484,18.3657168,83.9003022,"Andhra Pradesh 532484, India"
431509,19.5943149,76.6874701,"Maharashtra 431509, India"
431009,19.8644542,75.3557927,"Aurangabad, Maharashtra 431009, India"
486123,24.5997165,81.6254283,"Madhya Pradesh 486123, India"
431510,19.7524144,76.6181655,"Maharashtra 431510, India"
829108,23.7060257,85.36529589999999,"Jharkhand 829108, India"
431511,19.2229813,77.03341790000002,"Maharashtra 431511, India"
688524,9.6980083,76.34636239999999,"Kerala 688524, India"
688525,9.621867,76.34636239999999,"Kerala 688525, India"
688526,9.8125889,76.3521514,"Kerala 688526, India"
688527,9.6610906,76.37530459999999,"Kerala 688527, India"
688529,9.717900499999999,76.3000419,"Kerala 688529, India"
627413,8.7472709,77.4587239,"Tamil Nadu 627413, India"
262547,30.0582925,80.6770787,"Uttarakhand 262547, India"
721301,22.336882,87.4009165,"West Bengal 721301, India"
688534,9.8708834,76.3116235,"Kerala 688534, India"
688535,9.8490786,76.3116235,"Kerala 688535, India"
688536,9.7167037,76.33767859999999,"Kerala 688536, India"
721305,22.3897679,87.35625619999999,"West Bengal 721305, India"
721306,22.2936568,87.3065834,"West Bengal 721306, India"
688539,9.6857252,76.3116235,"Kerala 688539, India"
431514,18.9415745,76.6874701,"Maharashtra 431514, India"
431516,19.0461755,76.5257007,"Maharashtra 431516, India"
754100,20.4162771,86.00195149999999,"Odisha 754100, India"
431519,18.6771011,76.5719414,"Maharashtra 431519, India"
431521,19.1063531,76.7105632,"Maharashtra 431521, India"
826001,23.7995984,86.433914,"Dhanbad, Jharkhand 826001, India"
754137,20.281485,86.3680869,"Odisha 754137, India"
754139,20.1883675,86.4693235,"Odisha 754139, India"
754145,20.2629138,86.63087589999999,"Odisha 754145, India"
754153,20.3872078,86.3704506,"Odisha 754153, India"
226302,26.5829637,81.0092062,"Uttar Pradesh 226302, India"
387570,1.316032,103.888518,Singapore 387570
721401,21.758129,87.74680710000001,"West Bengal 721401, India"
721424,22.0979801,87.3612205,"West Bengal 721424, India"
826003,23.7972654,86.4617379,"Dhanbad, Jharkhand 826003, India"
754200,20.5002454,86.0325629,"Odisha 754200, India"
754203,20.4610062,86.1395598,"Odisha 754203, India"
754204,20.6102948,86.16500239999999,"Odisha 754204, India"
754205,20.6129454,86.28695069999999,"Odisha 754205, India"
754206,20.5631467,86.1853474,"Odisha 754206, India"
273157,27.2237652,83.2720082,"Uttar Pradesh 273157, India"
754208,20.5116889,86.2818753,"Odisha 754208, India"
754209,20.4454862,86.2463337,"Odisha 754209, India"
754210,20.4467836,86.3072469,"Odisha 754210, India"
754211,20.556622,86.438974,"Odisha 754211, India"
754212,20.4747461,86.50976089999999,"Odisha 754212, India"
305926,25.7950846,74.018261,"Rajasthan 305926, India"
754214,20.584803,86.3630197,"Odisha 754214, India"
754215,20.5949685,86.5703554,"Odisha 754215, India"
754216,20.4936998,86.5653087,"Odisha 754216, India"
721449,21.8293646,87.7271123,"West Bengal 721449, India"
721450,21.7532816,87.83041449999999,"West Bengal 721450, India"
721451,22.0137786,87.31155299999999,"West Bengal 721451, India"
721452,21.803868,87.60876379999999,"West Bengal 721452, India"
721453,21.7138495,87.56430399999999,"West Bengal 721453, India"
721454,22.065735,87.58900919999999,"West Bengal 721454, India"
721455,21.685815,87.68769689999999,"West Bengal 721455, India"
721456,21.9712638,87.6482474,"West Bengal 721456, India"
721457,21.8237901,87.3512913,"West Bengal 721457, India"
721458,22.067428,87.70740889999999,"West Bengal 721458, India"
754227,20.7628127,86.63087589999999,"Odisha 754227, India"
754228,20.3902139,86.4060104,"Odisha 754228, India"
754231,20.6687398,86.6913222,"Odisha 754231, India"
387370,22.6557371,72.9047136,"Gujarat 387370, India"
431541,19.1393398,76.5257007,"Maharashtra 431541, India"
492099,21.2996023,81.57061089999999,"Chhattisgarh 492099, India"
754244,20.4250966,86.4086061,"Odisha 754244, India"
754245,20.4948807,86.62583529999999,"Odisha 754245, India"
606305,11.6594174,79.1322744,"Tamil Nadu 606305, India"
754248,20.707272,86.8421125,"Odisha 754248, India"
144002,31.3101807,75.4927278,"Punjab 144002, India"
787051,27.2785838,94.08999109999999,"787051, India"
787052,27.1365121,94.1309067,"Assam 787052, India"
787053,27.2724661,94.29488839999999,"Assam 787053, India"
754289,20.5480346,86.31231969999999,"Odisha 754289, India"
754290,20.5555072,86.1090119,"Odisha 754290, India"
787060,27.7778897,95.26844369999999,"787060, India"
787061,27.6965784,94.9350929,"787061, India"
177203,31.6642247,76.1030007,"Himachal Pradesh 177203, India"
517620,13.8648501,79.5715822,"Andhra Pradesh 517620, India"
391740,22.3733328,73.1762626,"Gujarat 391740, India"
721641,22.473364,87.7664934,"West Bengal 721641, India"
721644,22.2345248,87.7271123,"West Bengal 721644, India"
721645,22.1173382,88.07999720000001,"West Bengal 721645, India"
721646,21.9280148,87.9824758,"West Bengal 721646, India"
721647,22.3005352,87.7615726,"West Bengal 721647, India"
721648,22.2371393,87.92367469999999,"West Bengal 721648, India"
721649,22.2781514,87.86970559999999,"West Bengal 721649, India"
721650,22.0105884,87.913867,"West Bengal 721650, India"
721651,22.2832634,87.80584019999999,"West Bengal 721651, India"
721652,22.2125483,87.86479609999999,"West Bengal 721652, India"
721653,22.3132499,87.8205864,"West Bengal 721653, India"
262902,28.4924923,80.6770787,"Uttar Pradesh 262902, India"
262903,28.2018829,80.8322428,"Uttar Pradesh 262903, India"
262904,28.5910778,80.4326521,"Uttar Pradesh 262904, India"
262905,28.3034939,80.9650023,"Uttar Pradesh 262905, India"
361210,22.5115849,70.4550922,"Gujarat 361210, India"
262907,28.2136622,81.0092062,"Uttar Pradesh 262907, India"
382428,23.1039529,72.6357841,"Bhat, Ahmedabad, Gujarat 382428, India"
639111,10.9108367,77.90878099999999,"Tamil Nadu 639111, India"
623406,9.8410237,79.0701548,"Tamil Nadu 623406, India"
639112,10.9039377,78.49224269999999,"Tamil Nadu 639112, India"
361305,22.2318967,69.6929488,"Gujarat 361305, India"
583228,15.3799635,76.3405733,"Karnataka 583228, India"
766002,19.8875657,83.1005505,"Odisha 766002, India"
382440,22.9525631,72.6112876,"Ahmedabad, Gujarat 382440, India"
394115,21.5553801,72.97558289999999,"Gujarat 394115, India"
611109,10.6872361,79.7512033,"Tamil Nadu 611109, India"
445211,19.6918395,77.55047789999999,"Maharashtra 445211, India"
623501,9.3727024,78.821275,"Tamil Nadu 623501, India"
382445,22.9671256,72.6466186,"Ahmedabad, Gujarat 382445, India"
623516,9.2927498,79.058856,"Tamil Nadu 623516, India"
623517,9.2515529,78.7872876,"Tamil Nadu 623517, India"
623518,9.2722964,79.10404319999999,"Tamil Nadu 623518, India"
781125,26.0103838,91.4628042,"Assam 781125, India"
623520,9.3938331,78.7986181,"Tamil Nadu 623520, India"
623521,9.2783794,79.2140972,"Tamil Nadu 623521, India"
230306,25.6992991,82.1387233,"Uttar Pradesh 230306, India"
781126,26.2474396,91.38551609999999,"Assam 781126, India"
623526,9.2618979,79.30148450000002,"Tamil Nadu 623526, India"
628209,1.277892,103.729677,Singapore 628209
623531,9.560829,78.8892146,"Tamil Nadu 623531, India"
628210,8.467928600000002,77.99099489999999,"Tamil Nadu 628210, India"
623536,9.3156628,78.9175088,"Tamil Nadu 623536, India"
628211,8.578172799999999,78.0266735,"Tamil Nadu 628211, India"
682032,9.9841473,76.3130712,"Ernakulam, Kerala 682032, India"
132036,29.615757,76.8490328,"Haryana 132036, India"
431606,19.0867478,77.25201009999999,"Maharashtra 431606, India"
394185,21.2643885,72.9519622,"Gujarat 394185, India"
382455,22.14436,72.189,"Gujarat 382455, India"
394190,21.2788774,72.93867449999999,"Gujarat 394190, India"
689105,9.384633599999999,76.5979445,"Kerala 689105, India"
689111,9.389988299999999,76.5784427,"Thiruvalla, Kerala 689111, India"
689112,9.386946,76.51702879999999,"Kerala 689112, India"
486223,24.969244,81.49379929999999,"486223, India"
689121,9.320001099999999,76.6094997,"Kerala 689121, India"
394210,21.1665957,72.8472917,"Surat, Gujarat 394210, India"
689123,9.3210988,76.63838319999999,"Kerala 689123, India"
689124,9.3306232,76.60372219999999,"Kerala 689124, India"
841212,25.9905355,84.5064881,"Bihar 841212, India"
394221,21.1346531,72.8396879,"Udhna, Surat, Gujarat 394221, India"
841213,25.8613856,84.6792931,"Bihar 841213, India"
623601,9.4630147,78.4069732,"Tamil Nadu 623601, India"
623604,9.363635000000002,78.37284559999999,"Tamil Nadu 623604, India"
623605,9.488235500000002,78.3443972,"Tamil Nadu 623605, India"
394230,21.0767766,72.8474884,"Surat, Gujarat 394230, India"
786601,27.6230438,95.34162549999999,"Assam 786601, India"
623608,9.5632939,78.4638274,"Tamil Nadu 623608, India"
382463,22.297425,72.1179169,"Gujarat 382463, India"
132101,29.2647223,76.9873477,"Haryana 132101, India"
394246,20.9318564,73.1998604,"Gujarat 394246, India"
841217,25.8066131,85.1375645,"Bihar 841217, India"
394248,20.884038,73.2411506,"Gujarat 394248, India"
391750,22.3894578,73.1379109,"Vadodara, Gujarat 391750, India"
841219,25.8753225,85.0752926,"Bihar 841219, India"
623701,9.5678257,78.60014819999999,"Tamil Nadu 623701, India"
623703,9.2477831,78.49792479999999,"Tamil Nadu 623703, India"
623706,9.478081399999999,78.5320107,"Tamil Nadu 623706, India"
623711,9.3492386,78.60014819999999,"Tamil Nadu 623711, India"
828205,23.8354477,86.7114545,"Jharkhand 828205, India"
382481,23.1104517,72.53505799999999,"Ahmedabad, Gujarat 382481, India"
481226,21.7108648,80.23213129999999,"Madhya Pradesh 481226, India"
425452,21.7538425,73.95949399999999,"425452, India"
852161,25.5561403,86.761749,"Bihar 852161, India"
722101,23.2004285,87.0724164,"West Bengal 722101, India"
394430,21.4512868,73.2529464,"Gujarat 394430, India"
224119,26.8263603,81.6418656,"Uttar Pradesh 224119, India"
853204,25.4689681,87.12233619999999,"Bihar 853204, India"
853205,25.3276762,87.1622344,"Bihar 853205, India"
722145,23.0303925,86.8922723,"West Bengal 722145, India"
224123,26.7824087,82.2039882,"Uttar Pradesh 224123, India"
722148,22.8016561,86.761749,"West Bengal 722148, India"
413580,18.1888185,76.247912,"Maharashtra 413580, India"
792104,28.0359962,96.83509989999999,"Arunachal Pradesh 792104, India"
722173,23.1356974,86.8019473,"West Bengal 722173, India"
722174,23.2015263,87.1323139,"West Bengal 722174, India"
591103,15.8728972,74.651754,"Karnataka 591103, India"
722176,23.2672462,87.14727649999999,"West Bengal 722176, India"
722178,23.2959907,87.0923906,"West Bengal 722178, India"
722179,23.1231675,87.0774107,"West Bengal 722179, India"
722180,23.2335673,87.09488680000001,"West Bengal 722180, India"
722181,23.2379313,87.00994299999999,"West Bengal 722181, India"
722182,23.3826667,86.9574023,"West Bengal 722182, India"
722183,23.5527663,87.14727649999999,"West Bengal 722183, India"
591118,15.723368,74.7161489,"Karnataka 591118, India"
394515,21.1949417,72.7008489,"Gujarat 394515, India"
591124,15.8466712,74.6049061,"Karnataka 591124, India"
591125,15.7882527,74.74541119999999,"Karnataka 591125, India"
591126,15.7550269,75.0844757,"Karnataka 591126, India"
517419,13.1630525,79.1661407,"Andhra Pradesh 517419, India"
591128,15.9014965,74.41738769999999,"591128, India"
722201,23.0562853,87.7172616,"West Bengal 722201, India"
722202,23.3819694,87.2419299,"West Bengal 722202, India"
722203,23.2860773,87.20209899999999,"West Bengal 722203, India"
852216,25.8675746,86.4288534,"Bihar 852216, India"
722208,23.395749,87.3512913,"West Bengal 722208, India"
423402,20.0069427,74.6166192,"Maharashtra 423402, India"
224135,26.7367649,82.2257298,"Uttar Pradesh 224135, India"
423403,20.0997046,74.6166192,"Maharashtra 423403, India"
755013,20.7604068,86.50976089999999,"Odisha 755013, India"
755022,20.9677751,86.1853474,"Odisha 755022, India"
224141,26.5575255,82.37773349999999,"Uttar Pradesh 224141, India"
506330,17.9058671,79.7287703,"Telangana 506330, India"
689505,9.2815309,76.631163,"Kerala 689505, India"
755043,20.8977054,86.2463337,"Odisha 755043, India"
689508,9.266249499999999,76.62105389999999,"Kerala 689508, India"
689513,9.227250500000002,76.736538,"Kerala 689513, India"
689514,9.3035468,76.675922,"Kerala 689514, India"
382775,22.8623689,71.8334145,"Gujarat 382775, India"
335023,29.9169636,73.5358541,"335023, India"
591216,16.5929565,74.48773059999999,"591216, India"
689521,9.2536877,76.647047,"Kerala 689521, India"
224147,26.4141208,83.01465259999999,"Uttar Pradesh 224147, India"
755061,20.6655841,86.5299673,"Odisha 755061, India"
591222,16.3619003,74.7688173,"Karnataka 591222, India"
852201,25.8897553,86.6157527,"Saharsa, Bihar 852201, India"
591227,16.198935,75.0494329,"Karnataka 591227, India"
591228,16.4537304,74.4642861,"Karnataka 591228, India"
689533,9.3230681,76.69035699999999,"Kerala 689533, India"
441914,21.4091807,79.53786339999999,"Maharashtra 441914, India"
624001,10.3639286,77.9681544,"Dindigul, Tamil Nadu 624001, India"
591234,16.7341222,74.8390162,"591234, India"
624003,10.3158218,78.0081221,"Tamil Nadu 624003, India"
591236,16.2987533,74.5346103,"Karnataka 591236, India"
591237,16.3779654,74.370477,"591237, India"
591238,16.3850442,74.4642861,"Karnataka 591238, India"
689543,9.3870636,76.66148530000001,"Kerala 689543, India"
689544,9.4063888,76.6701475,"Kerala 689544, India"
591241,16.4730073,74.3411515,"591241, India"
689546,9.350811700000001,76.6354952,"Kerala 689546, India"
591243,16.0383154,74.5697617,"591243, India"
689548,9.3497468,76.6788091,"Kerala 689548, India"
689550,9.3632119,76.71200639999999,"Kerala 689550, India"
689551,9.3525321,76.6094997,"Kerala 689551, India"
591248,16.7740652,75.2245693,"591248, India"
591263,16.5373961,74.4349761,"Karnataka 591263, India"
689572,9.367186,76.49679189999999,"Kerala 689572, India"
415302,17.1537554,74.3235539,"Maharashtra 415302, India"
689582,9.409382299999999,76.606611,"Kerala 689582, India"
175005,31.7903985,77.0219019,"Himachal Pradesh 175005, India"
689585,9.4409013,76.6499348,"Kerala 689585, India"
175006,31.6063746,76.9758274,"Himachal Pradesh 175006, India"
591287,16.4061789,74.51703189999999,"Karnataka 591287, India"
394680,21.2585897,73.5770801,"Gujarat 394680, India"
175007,31.5661429,76.75096599999999,"Himachal Pradesh 175007, India"
394690,21.1006998,73.2706389,"Gujarat 394690, India"
591301,1.319363,103.774059,Singapore 591301
263622,29.568528,79.9416549,"Uttarakhand 263622, India"
591303,16.6721894,74.9325683,"Karnataka 591303, India"
591304,16.717841,75.0844757,"Karnataka 591304, India"
591305,16.2880093,74.69858909999999,"Karnataka 591305, India"
591306,16.2473638,74.7688173,"Karnataka 591306, India"
591307,16.160881,74.8390162,"Karnataka 591307, India"
591308,16.1557843,74.7688173,"Karnataka 591308, India"
591309,16.2353121,74.6049061,"Karnataka 591309, India"
591310,16.2906277,75.0494329,"Karnataka 591310, India"
263631,29.7889342,79.9752212,"Uttarakhand 263631, India"
591312,16.3437365,74.9910112,"Karnataka 591312, India"
591313,16.2706214,74.4642861,"591313, India"
591314,16.2565244,74.505312,"591314, India"
591315,16.7059105,74.7688173,"591315, India"
591316,16.6635034,74.8156199,"Karnataka 591316, India"
689621,9.3494344,76.5285913,"Kerala 689621, India"
394710,20.809081,73.77132,"Gujarat 394710, India"
263639,29.8526792,79.61652099999999,"Uttarakhand 263639, India"
689624,9.2965635,76.56327259999999,"Kerala 689624, India"
263641,29.9019934,79.6614376,"Uttarakhand 263641, India"
689626,9.33555,76.5199195,"Kerala 689626, India"
394715,20.9630729,73.5711912,"Gujarat 394715, India"
263645,29.6639092,79.4028639,"Uttarakhand 263645, India"
721147,22.6576777,87.3512913,"West Bengal 721147, India"
624101,10.1734345,77.4472495,"Tamil Nadu 624101, India"
263655,29.6659188,79.5715822,"Uttarakhand 263655, India"
689642,9.3226433,76.75096599999999,"Kerala 689642, India"
263659,29.9133035,79.233837,"Uttarakhand 263659, India"
263660,29.7816207,79.30148450000002,"Uttarakhand 263660, India"
689645,9.2616978,76.7884713,"Kerala 689645, India"
676551,10.9364469,75.9811564,"Kerala 676551, India"
689647,9.2463191,76.7394237,"Kerala 689647, India"
263664,29.6708182,79.3465557,"Uttarakhand 263664, India"
689649,9.312664,76.7740475,"Kerala 689649, India"
530003,17.7242579,83.3228225,"Visakhapatnam, Andhra Pradesh 530003, India"
689662,9.3677566,76.9412601,"Kerala 689662, India"
689663,9.3130469,76.9297354,"Kerala 689663, India"
689664,9.2935592,76.8432663,"Kerala 689664, India"
721153,22.5281071,87.8500644,"West Bengal 721153, India"
530007,17.7488501,83.266657,"Visakhapatnam, Andhra Pradesh 530007, India"
785665,26.9399882,94.5985613,"Assam 785665, India"
530008,17.7343985,83.2746836,"Visakhapatnam, Andhra Pradesh 530008, India"
362004,21.4992832,70.490794,"Gujarat 362004, India"
362011,21.6247794,70.39558389999999,"Gujarat 362011, India"
757023,21.9345598,86.87221459999999,"Odisha 757023, India"
689695,9.0937855,76.860565,"Kerala 689695, India"
441809,21.0069551,79.8968798,"Maharashtra 441809, India"
788002,24.8894254,92.8277963,"Assam 788002, India"
788003,24.8606181,92.7829605,"Assam 788003, India"
788004,24.8143612,92.79914629999999,"Silchar, Assam 788004, India"
788005,24.8085237,92.7941654,"Assam 788005, India"
384130,23.9057282,72.4968189,"Gujarat 384130, India"
530012,17.6991505,83.1916937,"Visakhapatnam, Andhra Pradesh 530012, India"
788010,24.7963912,92.728219,"Assam 788010, India"
788013,24.7529427,92.8327807,"Assam 788013, India"
362030,21.5936229,70.70495199999999,"Gujarat 362030, India"
530013,17.7415669,83.3121281,"Visakhapatnam, Andhra Pradesh 530013, India"
530014,17.6785358,83.27735899999999,"Visakhapatnam, Andhra Pradesh 530014, India"
493113,21.6821692,81.8879884,"Chhattisgarh 493113, India"
493114,21.5708108,81.78963809999999,"Chhattisgarh 493114, India"
788030,24.9360939,92.86768610000001,"Assam 788030, India"
175029,31.6158527,77.067959,"Himachal Pradesh 175029, India"
224183,26.3033808,82.79402970000001,"Uttar Pradesh 224183, India"
306105,25.9309003,74.10050439999999,"Rajasthan 306105, India"
530020,17.716122,83.30009470000002,"Visakhapatnam, Andhra Pradesh 530020, India"
682303,10.0143499,76.3921148,"Kerala 682303, India"
788099,24.6133251,92.99755929999999,"Assam 788099, India"
788104,24.8356235,93.1478514,"Assam 788104, India"
788106,24.7661311,93.0676373,"Assam 788106, India"
493195,21.5895945,81.931657,"Chhattisgarh 493195, India"
493196,21.5464437,82.0189155,"Chhattisgarh 493196, India"
788109,24.9160672,92.9825559,"Assam 788109, India"
788110,24.9624123,92.728219,"Assam 788110, India"
788111,24.9375999,92.7879401,"Assam 788111, India"
788112,24.6368505,92.69341659999999,"Assam 788112, India"
788113,24.617884,92.7580701,"Assam 788113, India"
362130,21.3119979,70.74063579999999,"Gujarat 362130, India"
788115,24.6518192,92.847737,"Assam 788115, India"
788116,24.6032157,92.9076094,"Assam 788116, India"
788117,24.7018455,92.7083287,"Assam 788117, India"
788118,24.7538718,92.7829605,"Assam 788118, India"
362135,21.1547133,70.7644236,"Gujarat 362135, India"
460440,22.2189043,77.973865,"Madhya Pradesh 460440, India"
788121,24.6930622,92.862698,"Assam 788121, India"
460443,22.0094004,77.99670429999999,"Madhya Pradesh 460443, India"
362140,21.0320106,70.6930568,"Gujarat 362140, India"
788126,24.7082363,92.99755929999999,"Assam 788126, India"
460447,22.0697411,78.1792434,"Madhya Pradesh 460447, India"
522659,15.9771224,79.6277523,"Andhra Pradesh 522659, India"
460449,22.1569594,78.0880129,"Madhya Pradesh 460449, India"
493221,21.4346725,81.6692532,"Chhattisgarh 493221, India"
493222,21.5801289,82.7562895,"Chhattisgarh 493222, India"
493225,21.4228081,81.909826,"Chhattisgarh 493225, India"
306119,25.5228957,73.3472901,"Rajasthan 306119, India"
493228,21.5546956,82.1931149,"Chhattisgarh 493228, India"
493229,21.3485133,82.34518899999999,"Chhattisgarh 493229, India"
624302,10.2744776,77.9338846,"Tamil Nadu 624302, India"
624303,10.3176832,77.9110321,"Tamil Nadu 624303, India"
624304,10.2382793,77.99670429999999,"Tamil Nadu 624304, India"
624306,10.3641874,78.1222336,"Tamil Nadu 624306, India"
624307,10.3088138,77.9681544,"Tamil Nadu 624307, India"
624308,10.2310683,78.09942099999999,"Tamil Nadu 624308, India"
788150,24.7754641,92.5693337,"Assam 788150, India"
788151,24.6778735,92.5519885,"Assam 788151, India"
788152,24.7283448,92.5495112,"Assam 788152, India"
788155,24.6798652,92.6090043,"Assam 788155, India"
788156,24.7059324,92.4703057,"Assam 788156, India"
788160,24.6141659,92.63381559999999,"Assam 788160, India"
788161,24.4795947,92.5197932,"Assam 788161, India"
788162,24.2420676,92.5197932,"788162, India"
788163,24.4775734,92.6387795,"788163, India"
788164,24.6695144,92.5197932,"Assam 788164, India"
788165,24.3832676,92.59908349999999,"788165, India"
788166,24.6109911,92.4703057,"Assam 788166, India"
788168,24.6093411,92.5693337,"Assam 788168, India"
524003,14.4108526,79.99759159999999,"Andhra Pradesh 524003, India"
530040,17.7613647,83.2880591,"Visakhapatnam, Andhra Pradesh 530040, India"
306126,25.0870821,73.1585626,"Rajasthan 306126, India"
362205,21.4877527,70.39558389999999,"Gujarat 362205, India"
516163,14.6325024,78.8042828,"Andhra Pradesh 516163, India"
362215,21.3935249,70.3717788,"Gujarat 362215, India"
362220,21.2890443,70.1693949,"Gujarat 362220, India"
781308,26.1806063,90.86751339999999,"Assam 781308, India"
362222,21.3861147,70.2170209,"Gujarat 362222, India"
530045,17.7878396,83.3735966,"Visakhapatnam, Andhra Pradesh 530045, India"
362225,21.1393358,70.1574878,"Gujarat 362225, India"
362226,21.1613251,70.10390319999999,"Gujarat 362226, India"
362227,21.2093554,70.2646431,"Gujarat 362227, India"
362229,21.2993183,70.34797259999999,"Gujarat 362229, India"
362230,21.3112702,69.97885509999999,"Gujarat 362230, India"
508201,16.9144167,79.7624177,"Telangana 508201, India"
395001,21.1807255,72.8184548,"Surat, Gujarat 395001, India"
395002,21.184037,72.84695669999999,"Surat, Gujarat 395002, India"
395003,21.2074527,72.8349875,"Surat, Gujarat 395003, India"
395004,21.2299596,72.8209298,"Surat, Gujarat 395004, India"
395005,21.2588829,72.7333604,"Gujarat 395005, India"
395006,21.2173191,72.8664716,"Surat, Gujarat 395006, India"
395007,21.1597606,72.7959122,"Surat, Gujarat 395007, India"
395008,21.2087961,72.83315259999999,"Surat, Gujarat 395008, India"
395009,21.1927855,72.7998089,"Surat, Gujarat 395009, India"
395010,21.1945842,72.869188,"Surat, Gujarat 395010, India"
395011,21.1750928,72.8767384,"Surat, Gujarat 395011, India"
395012,21.1749982,72.8663363,"Surat, Gujarat 395012, India"
362245,21.1751921,70.3598758,"Gujarat 362245, India"
460551,21.9615976,78.1450412,"Madhya Pradesh 460551, India"
395017,21.1557746,72.8087115,"Surat, Gujarat 395017, India"
362250,21.0567361,70.2289268,"Gujarat 362250, India"
460557,21.7311127,78.04236829999999,"Madhya Pradesh 460557, India"
395023,21.1268316,72.8550308,"Surat, Gujarat 395023, India"
624401,10.2009538,78.1792434,"Tamil Nadu 624401, India"
624402,10.2826588,78.30455649999999,"Tamil Nadu 624402, India"
624403,10.4134073,78.25900539999999,"Tamil Nadu 624403, India"
362260,21.3293671,70.5026941,"Gujarat 362260, India"
508206,17.0066913,79.9752212,"Telangana 508206, India"
362263,21.4136215,70.5383926,"Gujarat 362263, India"
362265,20.9205207,70.3777302,"Gujarat 362265, India"
362266,20.9597571,70.3717788,"Gujarat 362266, India"
508207,16.6921874,79.5153773,"Telangana 508207, India"
362268,20.9234351,70.513549,"Gujarat 362268, India"
362269,21.0110844,70.419388,"Gujarat 362269, India"
493344,21.6634511,82.49693309999999,"Chhattisgarh 493344, India"
362275,20.8593555,70.5496442,"Gujarat 362275, India"
362276,20.7850825,70.6335763,"Gujarat 362276, India"
231205,24.5269295,82.9716617,"Uttar Pradesh 231205, India"
231206,24.5801458,83.1005505,"Uttar Pradesh 231206, India"
231207,24.4402679,83.1434573,"Uttar Pradesh 231207, India"
231208,24.127938,83.03613759999999,"Uttar Pradesh 231208, India"
231209,24.6111354,83.0039075,"Uttar Pradesh 231209, India"
231210,24.7733895,82.6915429,"Uttar Pradesh 231210, India"
231211,24.9447939,82.34518899999999,"231211, India"
231212,24.0656177,83.2291862,"231212, India"
231213,24.6124891,83.2934086,"Uttar Pradesh 231213, India"
231215,24.7118865,82.8855961,"Uttar Pradesh 231215, India"
231216,24.7199416,83.05761559999999,"Uttar Pradesh 231216, India"
231217,24.2565536,83.0039075,"Uttar Pradesh 231217, India"
231218,24.158097,82.79402970000001,"Uttar Pradesh 231218, India"
231219,24.4263387,82.8425216,"Uttar Pradesh 231219, India"
231220,24.1282837,82.7886395,"Uttar Pradesh 231220, India"
231221,24.2030939,82.9985343,"Uttar Pradesh 231221, India"
231222,24.101569,82.723924,"231222, India"
231223,23.9386454,83.03613759999999,"231223, India"
231224,24.1796987,82.7508963,"Uttar Pradesh 231224, India"
231225,24.2392471,82.8855961,"Uttar Pradesh 231225, India"
231226,24.3287266,83.2934086,"231226, India"
311605,25.3954718,75.1311874,"Rajasthan 311605, India"
422005,20.0047118,73.7654367,"Nashik, Maharashtra 422005, India"
362310,21.5635938,70.5502916,"Gujarat 362310, India"
587201,15.9094349,75.667356,"Karnataka 587201, India"
362315,21.6814133,70.532443,"Gujarat 362315, India"
313601,24.644577,74.0417628,"Rajasthan 313601, India"
686547,9.452033199999999,76.7278803,"Kerala 686547, India"
143001,31.6427636,74.8565613,"Amritsar, Punjab 143001, India"
821101,25.0091021,83.7199136,"Bihar 821101, India"
821102,24.8164475,83.63484299999999,"Bihar 821102, India"
821103,1.397086,103.9055829,Singapore 821103
821104,24.8008095,83.8260884,"Bihar 821104, India"
821105,25.2115498,83.4856913,"Bihar 821105, India"
821106,25.0661268,83.4003037,"Bihar 821106, India"
821107,25.1806669,83.8685072,"Bihar 821107, India"
821108,25.1771322,83.7836403,"Bihar 821108, India"
460661,21.8633557,78.24761459999999,"Madhya Pradesh 460661, India"
821110,25.2661666,83.6561215,"Bihar 821110, India"
460663,21.8544597,78.4524591,"Madhya Pradesh 460663, India"
821112,25.2418942,83.9214896,"Bihar 821112, India"
460665,21.6443074,78.30455649999999,"460665, India"
460666,21.694066,78.1792434,"Madhya Pradesh 460666, India"
821115,24.9512554,84.0378894,"Bihar 821115, India"
460668,21.5684653,78.0651931,"460668, India"
682020,9.9659856,76.30293739999999,"Ernakulam, Kerala 682020, India"
493441,21.2128683,81.97529949999999,"Chhattisgarh 493441, India"
231301,24.9540908,83.01465259999999,"Uttar Pradesh 231301, India"
231302,25.1469117,83.1005505,"Uttar Pradesh 231302, India"
231303,25.1131737,82.4102628,"Uttar Pradesh 231303, India"
231304,25.060777,82.7778579,"Uttar Pradesh 231304, India"
133001,30.377589,76.860565,"133001, India"
231306,25.1449055,82.8101975,"Uttar Pradesh 231306, India"
231307,25.1096119,82.57268049999999,"Uttar Pradesh 231307, India"
133004,30.2846381,76.83749949999999,"Haryana 133004, India"
133005,30.366075,76.88650849999999,"133005, India"
133006,30.3369789,76.90668289999999,"Haryana 133006, India"
231311,24.9479865,82.8855961,"Uttar Pradesh 231311, India"
231312,25.2017349,82.52940650000001,"Uttar Pradesh 231312, India"
231313,25.2141864,82.31262939999999,"Uttar Pradesh 231313, India"
231314,25.2314985,82.7724664,"Uttar Pradesh 231314, India"
535534,18.8796818,83.7092861,"535534, India"
680703,1.3913359,103.745982,Singapore 680703
623135,9.1562622,78.36146719999999,"Tamil Nadu 623135, India"
470003,23.8341904,78.7872876,"Madhya Pradesh 470003, India"
690101,9.2384874,76.5314817,"Kerala 690101, India"
690102,9.258645,76.56327259999999,"Kerala 690102, India"
690103,9.256667499999999,76.51124709999999,"Kerala 690103, India"
690104,9.268378199999999,76.5343721,"Chennithala, Kerala 690104, India"
690105,9.2813676,76.5199195,"Chennithala, Kerala 690105, India"
690106,9.2159594,76.5083562,"Kerala 690106, India"
690107,9.207758199999999,76.5777203,"Kerala 690107, India"
690108,9.248252299999999,76.5748309,"Kerala 690108, India"
690110,9.2369854,76.56327259999999,"Mavelikara, Kerala 690110, India"
402201,18.7297501,72.88699299999999,"Maharashtra 402201, India"
785680,26.8043252,94.61404809999999,"Assam 785680, India"
442702,19.6945632,79.60528839999999,"Maharashtra 442702, India"
493526,21.657524,82.36688699999999,"Chhattisgarh 493526, India"
624601,10.4305192,77.55047789999999,"Tamil Nadu 624601, India"
273402,26.2991509,83.57096399999999,"Uttar Pradesh 273402, India"
624610,10.3846495,77.5046101,"Tamil Nadu 624610, India"
273403,26.5346539,83.3254958,"Uttar Pradesh 273403, India"
624612,10.5480162,77.7337628,"Tamil Nadu 624612, India"
624613,10.519634,77.57340479999999,"Tamil Nadu 624613, India"
624614,10.4782171,77.6421577,"Tamil Nadu 624614, India"
624615,10.3934021,77.4472495,"Tamil Nadu 624615, India"
624616,10.6230777,77.67651839999999,"Tamil Nadu 624616, India"
624617,10.5831071,77.5046101,"Tamil Nadu 624617, India"
624618,10.5371354,77.4587239,"Tamil Nadu 624618, India"
624619,10.4826824,77.7566523,"Tamil Nadu 624619, India"
624620,10.7382905,78.07660360000001,"Tamil Nadu 624620, India"
133101,30.2736618,76.9527836,"Haryana 133101, India"
624622,10.4420826,77.8481628,"Tamil Nadu 624622, India"
133103,30.1934611,77.17152279999999,"Haryana 133103, India"
133104,30.323633,76.9988669,"Haryana 133104, India"
493554,21.2044616,82.8425216,"Chhattisgarh 493554, India"
493555,21.3959855,82.8855961,"Chhattisgarh 493555, India"
273406,26.5796049,83.2827093,"Uttar Pradesh 273406, India"
493558,21.2872302,83.12200740000002,"493558, India"
493559,21.634965,82.92864279999999,"Chhattisgarh 493559, India"
273407,26.4376941,83.2613054,"Uttar Pradesh 273407, India"
442709,19.2096346,80.1875065,"Maharashtra 442709, India"
273408,26.3506687,83.41098339999999,"Uttar Pradesh 273408, India"
442710,19.3627317,80.4103957,"442710, India"
273409,26.3814668,83.3148018,"Uttar Pradesh 273409, India"
362510,20.7549375,70.9665682,"362510, India"
458667,23.8978822,74.9910112,"Madhya Pradesh 458667, India"
229206,26.1698687,80.9539475,"Uttar Pradesh 229206, India"
362520,20.714218,70.96062409999999,"Daman and Diu 362520, India"
754010,20.2437,85.99684789999999,"Odisha 754010, India"
273413,26.5171041,83.4536844,"Uttar Pradesh 273413, India"
382640,23.2758332,72.5737187,"Gujarat 382640, India"
362530,20.9938478,70.95468,"Gujarat 362530, India"
362540,20.7242509,70.985886,"Daman and Diu 362540, India"
682026,10.0146377,76.291355,"Kochi, Kerala 682026, India"
821301,25.0035481,84.16461629999999,"Bihar 821301, India"
362550,20.8068765,71.121085,"Gujarat 362550, India"
821303,1.403743,103.906084,Singapore 821303
821304,24.5642937,83.8260884,"821304, India"
821305,24.9195562,84.13295950000001,"Bihar 821305, India"
821306,1.406609,103.9051999,Singapore 821306
821307,24.9285535,84.21207,"Bihar 821307, India"
821308,24.8333135,84.1197643,"Bihar 821308, India"
624701,10.2796169,77.8510213,"Tamil Nadu 624701, India"
624702,10.5153053,78.0309542,"Tamil Nadu 624702, India"
624703,10.6718583,78.07660360000001,"Tamil Nadu 624703, India"
362560,20.8363878,70.9784562,"Gujarat 362560, India"
624705,10.3547394,77.8710285,"Tamil Nadu 624705, India"
624706,10.5948504,78.0880129,"Tamil Nadu 624706, India"
624707,10.2829099,77.86531260000001,"Tamil Nadu 624707, India"
624708,10.237578,77.8310104,"Tamil Nadu 624708, India"
362565,20.9287508,71.0854325,"Gujarat 362565, India"
624710,10.5339075,77.93959699999999,"Tamil Nadu 624710, India"
624711,10.5993276,77.91674569999999,"Tamil Nadu 624711, India"
624712,10.6381919,77.77953699999999,"Tamil Nadu 624712, India"
362570,20.7188571,70.9011786,"362570, India"
497335,23.2311936,82.5834947,"Chhattisgarh 497335, India"
231501,25.2205559,82.669947,"Uttar Pradesh 231501, India"
133201,30.2222932,77.0622028,"Haryana 133201, India"
133202,30.2444703,77.1139984,"Haryana 133202, India"
133203,30.2516988,77.01614359999999,"Haryana 133203, India"
133204,30.42477209999999,77.2175223,"133204, India"
854101,25.4184596,87.60876379999999,"Bihar 854101, India"
133206,30.3468402,77.19231649999999,"Haryana 133206, India"
133207,30.2551606,77.0506896,"Haryana 133207, India"
854104,25.520064,87.32149079999999,"Bihar 854104, India"
854105,25.5118674,87.5296943,"Bihar 854105, India"
854106,25.5348702,87.4901086,"Bihar 854106, India"
854107,25.5164108,87.62604209999999,"Bihar 854107, India"
854108,25.6634781,87.4009165,"Bihar 854108, India"
493661,21.0582119,81.71305219999999,"Chhattisgarh 493661, India"
493662,20.6653504,81.909826,"Chhattisgarh 493662, India"
754021,20.4915864,85.9151211,"Odisha 754021, India"
854112,25.3024876,87.7664934,"Bihar 854112, India"
854113,25.3243492,87.6482474,"854113, India"
854114,25.6260125,87.29167129999999,"Bihar 854114, India"
431803,19.339224,78.04236829999999,"431803, India"
854116,25.4919711,87.7664934,"Bihar 854116, India"
854117,25.4320175,87.7172616,"Bihar 854117, India"
229209,26.3357742,80.89311839999999,"Uttar Pradesh 229209, India"
333501,27.9165901,75.77203279999999,"Rajasthan 333501, India"
362610,21.4890304,70.31226149999999,"Gujarat 362610, India"
431806,19.1649986,77.53901270000001,"Maharashtra 431806, India"
431807,19.0061374,77.6077865,"431807, India"
362620,21.5193667,70.0026756,"Gujarat 362620, India"
175125,31.911185,77.2175223,"Himachal Pradesh 175125, India"
362625,21.4300079,70.1098573,"Gujarat 362625, India"
781334,26.4002449,91.4531355,"Assam 781334, India"
362630,21.4715432,70.1693949,"Gujarat 362630, India"
781335,26.444811,91.4217274,"Assam 781335, India"
362640,21.568663,70.2170209,"Gujarat 362640, India"
731130,23.989674,87.31155299999999,"731130, India"
388121,22.5384384,72.91357339999999,"Gujarat 388121, India"
362650,21.6759721,69.97885509999999,"Gujarat 362650, India"
517425,12.779585,78.4297187,"517425, India"
175130,32.0900763,77.2175223,"Himachal Pradesh 175130, India"
723102,23.2814292,86.3883506,"West Bengal 723102, India"
723103,23.3218334,86.6006249,"West Bengal 723103, India"
723104,23.3561568,86.34147840000001,"West Bengal 723104, India"
624801,10.4762838,78.1678439,"Tamil Nadu 624801, India"
624802,10.4622402,78.0880129,"Tamil Nadu 624802, India"
175131,32.3038146,77.1255055,"Himachal Pradesh 175131, India"
175132,32.7478902,77.3324425,"Himachal Pradesh 175132, India"
229211,26.2290164,80.8709872,"Uttar Pradesh 229211, India"
321023,27.7264759,77.2175223,"321023, India"
175133,32.6406476,76.9412601,"Himachal Pradesh 175133, India"
723121,23.4671204,86.72151749999999,"West Bengal 723121, India"
621116,11.3679076,78.8269385,"Tamil Nadu 621116, India"
133301,30.8272925,76.83749949999999,"133301, India"
133302,30.8569568,76.90668289999999,"133302, India"
723127,23.1027859,86.3782198,"West Bengal 723127, India"
723128,23.1773356,86.51986509999999,"West Bengal 723128, India"
723129,22.8208241,86.5400674,"723129, India"
723130,23.2768164,86.72151749999999,"West Bengal 723130, India"
723131,23.0129549,86.6207943,"West Bengal 723131, India"
723132,23.3828108,86.67118169999999,"West Bengal 723132, India"
723133,23.5596664,86.6006249,"West Bengal 723133, India"
781344,26.6714247,91.4628042,"Assam 781344, India"
723142,23.60981,86.72151749999999,"West Bengal 723142, India"
723143,23.0989935,86.21584969999999,"723143, India"
229212,26.1600216,80.7990185,"Uttar Pradesh 229212, India"
461001,22.7462782,77.8138553,"Madhya Pradesh 461001, India"
493770,20.862497,81.5815776,"Chhattisgarh 493770, India"
723147,23.4241257,86.3883506,"West Bengal 723147, India"
723148,23.3667393,86.4794359,"West Bengal 723148, India"
461005,22.7248147,77.6879696,"Madhya Pradesh 461005, India"
723151,23.1799537,86.6409554,"West Bengal 723151, India"
493776,20.6351205,81.52672820000001,"Chhattisgarh 493776, India"
723153,23.2324538,86.32753509999999,"West Bengal 723153, India"
493778,20.2414982,81.9534815,"Chhattisgarh 493778, India"
175139,32.7689575,76.8951551,"Himachal Pradesh 175139, India"
723156,23.5171683,86.8421125,"West Bengal 723156, India"
362710,20.9059393,70.78820999999999,"Gujarat 362710, India"
723161,23.6243917,86.85214859999999,"West Bengal 723161, India"
362715,24.7305945,118.6142547,"Shishi, Quanzhou, Fujian, China, 362715"
788701,24.8125491,92.4801989,"788701, India"
362720,20.7888593,70.7644236,"Gujarat 362720, India"
362725,20.8591872,70.6811613,"Gujarat 362725, India"
788710,24.8679169,92.35668609999999,"788710, India"
788711,24.8443477,92.3468195,"788711, India"
788712,24.8748406,92.2925911,"788712, India"
788713,24.8258535,92.3912362,"788713, India"
362730,20.853349,71.2280234,"Gujarat 362730, India"
175143,32.1652178,77.0794705,"Himachal Pradesh 175143, India"
743122,22.7774416,88.3501804,"Kolkata, West Bengal 743122, India"
246141,30.4776493,78.8948741,"Uttarakhand 246141, India"
788720,24.7543553,92.4109908,"Assam 788720, India"
814120,24.4326791,86.87221459999999,"Jharkhand 814120, India"
788722,24.7793288,92.33202349999999,"788722, India"
788723,24.683473,92.3912362,"Assam 788723, India"
788724,24.6369258,92.33202349999999,"Assam 788724, India"
788725,24.5428586,92.2728877,"Assam 788725, India"
788726,24.4710222,92.3123031,"Assam 788726, India"
535593,18.657278,83.1005505,"535593, India"
788728,24.2933112,92.2827384,"Assam 788728, India"
743124,23.07405,88.7926739,"West Bengal 743124, India"
814122,24.4915369,86.7089384,"Deoghar, Jharkhand 814122, India"
788734,24.5160259,92.4703057,"Assam 788734, India"
788735,24.5771163,92.3616203,"Assam 788735, India"
788736,24.4333915,92.4406387,"Assam 788736, India"
723201,23.4066872,86.15482689999999,"723201, India"
723202,23.3550585,85.9917437,"723202, India"
363423,22.5727612,72.01125979999999,"Gujarat 363423, India"
501501,17.186881,77.9510209,"Telangana 501501, India"
723212,23.2578534,85.9100089,"West Bengal 723212, India"
723213,23.4511897,86.0325629,"723213, India"
723215,23.5351601,86.0631561,"723215, India"
391105,22.0127636,73.4298073,"Gujarat 391105, India"
743130,23.0144919,88.7926739,"West Bengal 743130, India"
854302,25.7774797,87.4950586,"Bihar 854302, India"
854303,25.7467984,87.4306663,"Bihar 854303, India"
854304,25.853388,87.4405786,"Bihar 854304, India"
756001,21.4887246,86.9173327,"Odisha 756001, India"
756002,21.4592207,86.9323627,"Odisha 756002, India"
756003,21.5545143,86.9323627,"Odisha 756003, India"
854311,26.1862386,87.55936129999999,"Bihar 854311, India"
854312,26.0417621,87.4009165,"Bihar 854312, India"
854315,25.9764921,87.7369607,"Bihar 854315, India"
854316,26.3337629,87.2319753,"Bihar 854316, India"
788781,24.8335472,92.27781279999999,"788781, India"
854318,26.274957,87.2419299,"Bihar 854318, India"
743133,22.8569944,88.4839788,"West Bengal 743133, India"
517426,12.8069316,78.2817834,"517426, India"
756019,21.5655004,86.8822445,"Odisha 756019, India"
756020,21.5639861,86.8019473,"Odisha 756020, India"
743134,22.94445,88.419357,"Kolkata, West Bengal 743134, India"
461110,22.6615715,77.77953699999999,"Madhya Pradesh 461110, India"
461111,22.4179772,77.8138553,"Madhya Pradesh 461111, India"
756024,21.5704796,87.1622344,"Odisha 756024, India"
493881,21.0038252,81.81150509999999,"Chhattisgarh 493881, India"
461114,22.5993632,77.7709558,"Madhya Pradesh 461114, India"
461115,22.5624965,77.7108686,"Madhya Pradesh 461115, India"
854332,26.3856861,87.4901086,"Bihar 854332, India"
493885,20.9246493,81.8879884,"Chhattisgarh 493885, India"
756030,21.7486701,87.1323139,"Odisha 756030, India"
493887,20.8443908,81.9425701,"Chhattisgarh 493887, India"
493888,20.2571359,82.3017728,"493888, India"
493889,20.4919392,82.25832969999999,"493889, India"
461122,22.6097654,77.7537913,"Madhya Pradesh 461122, India"
493891,19.999494,82.50234640000001,"493891, India"
756036,21.6579159,87.4108352,"Odisha 756036, India"
690501,9.125965899999999,76.5603828,"Kerala 690501, India"
690502,9.1614252,76.49679189999999,"Kerala 690502, India"
690503,9.174421299999999,76.55460310000001,"Kerala 690503, India"
690504,9.1562447,76.647047,"Kerala 690504, India"
606604,12.2749775,79.0532061,"Tamil Nadu 606604, India"
690506,9.2245828,76.4505243,"Kerala 690506, India"
690507,9.2334721,76.4707684,"Kerala 690507, India"
690508,9.217237299999999,76.4707684,"Kerala 690508, India"
690509,9.2623388,76.5892774,"Kerala 690509, India"
690510,9.2064493,76.5430429,"Kerala 690510, India"
690511,9.2475551,76.4852265,"Kerala 690511, India"
690512,9.2800422,76.4852265,"Kerala 690512, India"
690513,9.259018200000002,76.4664307,"Kerala 690513, India"
690514,9.2895436,76.4505243,"Kerala 690514, India"
690515,9.2531314,76.41870589999999,"Kerala 690515, India"
690516,9.259431099999999,76.44184729999999,"Kerala 690516, India"
690517,9.3211519,76.4273844,"Kerala 690517, India"
690518,9.0438387,76.5314817,"Kerala 690518, India"
690519,9.045554899999999,76.5777203,"Kerala 690519, India"
690520,9.0805396,76.647047,"Kerala 690520, India"
690521,9.0420759,76.6297189,"Kerala 690521, India"
690522,9.0904937,76.6239423,"Kerala 690522, India"
246159,30.0976838,78.713608,"Uttarakhand 246159, India"
690524,9.0019315,76.5661622,"Kerala 690524, India"
690526,9.1194776,76.5314817,"Kerala 690526, India"
788831,25.3891475,93.29861059999999,"Assam 788831, India"
690528,9.0881327,76.5242554,"Kerala 690528, India"
690529,9.199104799999999,76.6354952,"Kerala 690529, India"
690530,9.1445638,76.6239423,"Kerala 690530, India"
690531,9.1897477,76.4592007,"Kerala 690531, India"
690532,9.2434137,76.44763209999999,"Kerala 690532, India"
690533,9.151481799999999,76.5199195,"Kerala 690533, India"
690534,9.2086287,76.6008334,"Kerala 690534, India"
690535,9.2029412,76.4505243,"Kerala 690535, India"
690536,9.0310901,76.5517132,"Kerala 690536, India"
625001,9.915706199999999,78.1193823,"Madurai, Tamil Nadu 625001, India"
625002,9.9380654,78.130787,"Madurai, Tamil Nadu 625002, India"
625003,9.8984328,78.0965691,"Tamil Nadu 625003, India"
625004,9.9083843,78.0680458,"Tamil Nadu 625004, India"
625005,9.8618694,78.0708985,"Tamil Nadu 625005, India"
625006,9.8825788,78.0366614,"Tamil Nadu 625006, India"
625007,9.966533799999999,78.15929349999999,"Tamil Nadu 625007, India"
625008,9.860238899999999,78.0252466,"Tamil Nadu 625008, India"
625009,9.8866467,78.15074229999999,"Tamil Nadu 625009, India"
756083,21.5842147,87.27178099999999,"Odisha 756083, India"
625012,9.8744612,78.1165309,"Tamil Nadu 625012, India"
756085,21.6288126,87.45544319999999,"Odisha 756085, India"
625014,9.9960246,78.1393397,"Tamil Nadu 625014, India"
625015,9.8817741,78.0908651,"Tamil Nadu 625015, India"
625016,9.928507200000002,78.09371709999999,"Tamil Nadu 625016, India"
625017,9.9732387,78.1165309,"Tamil Nadu 625017, India"
625018,9.961028899999999,78.0823084,"Tamil Nadu 625018, India"
625019,9.9435367,78.0537813,"Tamil Nadu 625019, India"
625020,9.9272833,78.2134346,"Tamil Nadu 625020, India"
625021,9.914665600000001,78.0138306,"Tamil Nadu 625021, India"
625022,9.792436300000002,78.1222336,"Tamil Nadu 625022, India"
625023,9.9525011,78.189217,"Tamil Nadu 625023, India"
690561,9.1346071,76.647047,"Kerala 690561, India"
756100,21.0521883,86.5148133,"Odisha 756100, India"
721302,22.3145443,87.30906829999999,"West Bengal 721302, India"
781377,26.6257656,91.3083685,"Assam 781377, India"
721303,22.3399696,87.2269973,"West Bengal 721303, India"
690572,9.193439699999999,76.4852265,"Kerala 690572, India"
690573,9.056586300000001,76.51124709999999,"Kerala 690573, India"
690574,9.113637299999999,76.59216649999999,"Kerala 690574, India"
756111,21.1422085,86.5501654,"Odisha 756111, India"
756112,20.9964136,86.4086061,"Odisha 756112, India"
721304,22.2866205,87.2419299,"West Bengal 721304, India"
756114,21.0786759,86.357952,"Odisha 756114, India"
756115,21.2102851,86.3883506,"Odisha 756115, India"
756116,20.9985075,86.50976089999999,"Odisha 756116, India"
756117,20.8899045,86.438974,"Odisha 756117, India"
756118,20.9329231,86.504708,"Odisha 756118, India"
688537,9.8163821,76.3116235,"Kerala 688537, India"
756120,20.9358212,86.357952,"Odisha 756120, India"
756121,21.0180636,86.3072469,"Odisha 756121, India"
756122,20.9228331,86.3072469,"Odisha 756122, India"
756123,21.0719803,86.61071059999999,"Odisha 756123, India"
756124,21.0735629,86.6913222,"Odisha 756124, India"
688538,9.5741082,76.37530459999999,"Kerala 688538, India"
756126,21.1797499,86.6409554,"Odisha 756126, India"
756127,21.0298029,86.5854925,"Odisha 756127, India"
756128,21.0172886,86.5552137,"Odisha 756128, India"
756129,20.9329569,86.8119917,"Odisha 756129, India"
756130,20.9779103,86.67118169999999,"Odisha 756130, India"
756131,20.9552586,86.7315785,"Odisha 756131, India"
756132,20.86076,86.7718017,"Odisha 756132, India"
461221,22.5590585,77.5160788,"Madhya Pradesh 461221, India"
756134,21.1890121,86.50976089999999,"Odisha 756134, India"
461223,22.364418,77.4242972,"Madhya Pradesh 461223, India"
493992,21.0255234,82.0189155,"Chhattisgarh 493992, India"
756137,20.9456478,86.5451167,"Odisha 756137, India"
756138,20.8346388,86.65103289999999,"Odisha 756138, India"
756139,20.9944841,86.605668,"Odisha 756139, India"
461228,22.0256519,77.2864879,"Madhya Pradesh 461228, India"
756144,21.1546348,86.2920255,"Odisha 756144, India"
494001,18.9674119,81.9971108,"494001, India"
415516,17.946262,73.96537150000002,"Maharashtra 415516, India"
284404,24.3448563,78.792953,"284404, India"
494010,19.2802532,81.6035062,"Chhattisgarh 494010, India"
388170,1.315101,103.883721,Singapore 388170
756162,21.170758,86.7919009,"Odisha 756162, India"
788931,25.4937948,92.8178291,"Assam 788931, India"
756164,20.9930573,86.8421125,"Odisha 756164, India"
756165,21.1151437,86.6862879,"Odisha 756165, India"
756166,21.1200104,86.63087589999999,"Odisha 756166, India"
756167,21.0308032,86.6359159,"Odisha 756167, India"
756168,21.1512599,86.70642219999999,"Odisha 756168, India"
756171,20.851611,86.9223432,"Odisha 756171, India"
625101,10.1520624,78.3500875,"Tamil Nadu 625101, India"
625102,10.0725267,78.4354042,"Tamil Nadu 625102, India"
625103,10.2516408,78.36146719999999,"Tamil Nadu 625103, India"
625104,10.0159739,78.2362225,"Tamil Nadu 625104, India"
625105,10.0852037,78.3273245,"Tamil Nadu 625105, India"
625106,9.9980277,78.3500875,"Tamil Nadu 625106, India"
625107,9.9642971,78.17354379999999,"Tamil Nadu 625107, India"
625108,10.0876285,78.39559860000001,"Tamil Nadu 625108, India"
625109,10.000427,78.41834659999999,"Tamil Nadu 625109, India"
625110,9.9304998,78.30455649999999,"Tamil Nadu 625110, India"
781333,26.5657961,91.4144827,"Assam 781333, India"
523111,15.3284999,79.6277523,"Andhra Pradesh 523111, India"
625122,9.973635699999999,78.2817834,"Tamil Nadu 625122, India"
605751,11.8839863,79.1322744,"Tamil Nadu 605751, India"
517280,13.5378946,78.6341996,"Andhra Pradesh 517280, India"
584129,16.1527919,76.9412601,"Karnataka 584129, India"
413623,17.8936911,76.01598,"Maharashtra 413623, India"
363001,22.7444931,71.66140229999999,"Gujarat 363001, India"
363002,22.7219496,71.6406361,"Surendranagar, Gujarat 363002, India"
363020,22.6635692,71.6080009,"Gujarat 363020, India"
461331,22.3351214,77.0564464,"Madhya Pradesh 461331, India"
363030,22.7206915,71.70293079999999,"Gujarat 363030, India"
363035,22.6981524,71.6821672,"Gujarat 363035, India"
494111,18.4805952,81.64734399999999,"494111, India"
363040,22.7714186,71.4536835,"Gujarat 363040, India"
494114,17.9904043,81.20781640000001,"Chhattisgarh 494114, India"
494115,18.6767855,81.8224362,"Chhattisgarh 494115, India"
635124,12.857041,77.8938895,"635124, India"
494122,18.3215562,81.2518833,"Chhattisgarh 494122, India"
382728,23.1989514,72.35479149999999,"Gujarat 382728, India"
625203,10.1668258,77.7051443,"Tamil Nadu 625203, India"
625205,10.0658829,77.9453091,"Tamil Nadu 625205, India"
382729,23.2917626,72.4613191,"Gujarat 382729, India"
587115,16.1760419,75.8766333,"Karnataka 587115, India"
382730,23.4610731,72.53231389999999,"Gujarat 382730, India"
625214,10.0337618,77.9681544,"Tamil Nadu 625214, India"
625218,10.0948276,77.9852853,"Tamil Nadu 625218, India"
625221,10.0525342,78.0309542,"Tamil Nadu 625221, India"
131023,28.9043194,77.1600201,"Haryana 131023, India"
470113,24.2745234,78.1792434,"Madhya Pradesh 470113, India"
415517,17.9794761,74.018261,"Maharashtra 415517, India"
486440,24.6319292,81.36194019999999,"Madhya Pradesh 486440, India"
625234,9.9849687,77.9852853,"Tamil Nadu 625234, India"
382735,23.3749955,72.6860696,"Gujarat 382735, India"
470117,24.0292176,78.3387066,"Madhya Pradesh 470117, India"
131024,29.08317,76.8836261,"Haryana 131024, India"
363110,22.8399551,71.6436028,"Gujarat 363110, India"
363115,22.9430485,71.7385225,"Gujarat 363115, India"
587117,16.4262324,75.50437610000002,"Karnataka 587117, India"
382740,23.3266476,72.514567,"Gujarat 382740, India"
825109,24.2499786,85.7051116,"Jharkhand 825109, India"
461441,22.1151998,76.9412601,"Madhya Pradesh 461441, India"
461446,22.6210145,77.7666649,"Itarsi, Madhya Pradesh 461446, India"
494221,19.135478,82.06250519999999,"Chhattisgarh 494221, India"
494222,19.2790606,82.10606829999999,"494222, India"
494223,19.224216,81.931657,"Chhattisgarh 494223, India"
494224,19.4357934,81.909826,"494224, India"
494226,19.7193239,81.909826,"Chhattisgarh 494226, India"
494228,19.8243744,81.6254283,"Chhattisgarh 494228, India"
494229,19.6045694,81.47183869999999,"Chhattisgarh 494229, India"
494230,19.9824462,81.47183869999999,"Chhattisgarh 494230, India"
415513,17.8522786,73.9418603,"Maharashtra 415513, India"
415514,17.8755753,73.87719009999999,"Maharashtra 415514, India"
415515,17.8854675,73.99475629999999,"Maharashtra 415515, India"
232101,25.2432773,83.1434573,"Uttar Pradesh 232101, India"
232102,25.1877511,83.2184763,"Uttar Pradesh 232102, India"
232103,25.0564724,83.1863358,"232103, India"
232104,25.2595152,83.2398943,"Uttar Pradesh 232104, India"
232105,25.4540435,83.3682539,"Uttar Pradesh 232105, India"
232106,25.351251,83.4430118,"Uttar Pradesh 232106, India"
232107,25.4717728,83.2398943,"Uttar Pradesh 232107, India"
232108,25.3568014,83.3041061,"Uttar Pradesh 232108, India"
232109,25.4000514,83.2184763,"Uttar Pradesh 232109, India"
232110,25.2662887,83.38962219999999,"Uttar Pradesh 232110, India"
232111,24.8921713,83.2077645,"Uttar Pradesh 232111, India"
678701,10.7293578,76.647047,"Kerala 678701, India"
415518,17.5421378,74.0828839,"Maharashtra 415518, India"
232118,25.109521,83.3148018,"232118, India"
232120,25.3047275,83.1970511,"Uttar Pradesh 232120, India"
415519,17.5445076,74.0417628,"Maharashtra 415519, India"
131027,29.0600389,77.1139984,"Haryana 131027, India"
415520,17.4238723,73.9712488,"Maharashtra 415520, India"
415023,17.7106879,74.45842449999999,"Maharashtra 415023, India"
415521,18.0037706,74.1709702,"Maharashtra 415521, India"
415522,18.0337476,74.3939339,"Maharashtra 415522, India"
841507,26.107003,84.6269824,"Bihar 841507, India"
415524,17.8722684,74.1122506,"Maharashtra 415524, India"
841509,25.9954434,84.3279093,"Bihar 841509, India"
396001,20.6159356,72.9283391,"Gujarat 396001, India"
396002,20.591481,72.9431038,"Gujarat 396002, India"
486441,24.7312115,81.4498717,"Madhya Pradesh 486441, India"
396007,20.5813403,72.9283391,"Gujarat 396007, India"
152121,30.3027243,74.10050439999999,"Punjab 152121, India"
461551,22.5656584,77.9053182,"Madhya Pradesh 461551, India"
382760,23.2128884,71.69106599999999,"Gujarat 382760, India"
396020,20.5507223,72.9106202,"Gujarat 396020, India"
393041,21.5820491,73.6300729,"Gujarat 393041, India"
625402,10.0094168,78.0537813,"Tamil Nadu 625402, India"
494331,20.1037558,81.5377013,"Chhattisgarh 494331, India"
494333,20.4389266,81.6254283,"Chhattisgarh 494333, India"
494334,20.2660027,81.47183869999999,"Chhattisgarh 494334, India"
494335,20.2744664,81.64734399999999,"Chhattisgarh 494335, India"
494336,20.4303813,81.4498717,"Chhattisgarh 494336, India"
494337,20.4711078,81.3179364,"Chhattisgarh 494337, India"
396035,20.673213,72.9814877,"Gujarat 396035, India"
208001,26.4870674,80.34915989999999,"Uttar Pradesh 208001, India"
396040,20.6389471,73.0995528,"Gujarat 396040, India"
494347,20.06686,81.7568253,"494347, India"
396045,20.6294552,73.0051055,"Gujarat 396045, India"
396050,20.4857104,73.3001233,"Gujarat 396050, India"
396051,20.5734256,73.2529464,"Gujarat 396051, India"
396055,20.5546295,73.06413959999999,"Gujarat 396055, India"
306308,26.3180244,73.86542949999999,"Rajasthan 306308, India"
476219,26.4840075,77.8138553,"Madhya Pradesh 476219, India"
396060,20.6738237,73.2175571,"Gujarat 396060, India"
396065,20.3263772,73.323708,"396065, India"
